id,name,longitude,latitude,address,slowChargingPileCount,fastChargingPileCount,freq,chg_points
32075,共和世家,114.05301647496395,22.52431404060765,福田区福田区委旁益田路2004号共和世家,4,0,11332,4
12471,沙嘴红旗岭,114.03103255500068,22.524484629118295,沙头街道金地花园(北区)金地花园北区箭牌卫浴门口,4,0,6974,4
33206,玉雅居,114.18060105614882,22.558645082421545,广东省深圳市罗湖区莲塘街道罗沙路2068号,6,0,5669,6
928,南方电网充电站（福田汽车站）,114.00982266262076,22.53474764616448,广东省深圳市福田区白石路福田交通枢纽地下二层,6,6,5584,12
31312,金海湾花园二期,114.02860664271638,22.521851284351268,福田区福荣路46号金海湾花园二期,4,0,4718,4
31307,新天CBC,114.04823761102568,22.522912048189635,广东省深圳市福田区福保街道石厦北二街71号,8,0,3665,8
32041,星河明居,114.04791240079088,22.52529677023265,福田区福民路127号星河明居,2,0,2948,2
24651,深圳彩悦大厦充电站,114.02796163125464,22.61816322755466,深圳市龙华区留仙大道24号彩悦大厦地面停车场,14,1,2799,15
33082,嘉南美地,113.9144991800357,22.543140174939047,南山区南新路与深南大道交叉口西150米嘉南美地,3,0,2746,3
33007,景贝北小区,114.1369659656212,22.55809704716717,罗湖区怡景路1004号景贝北小区,2,0,2577,2
28139,弘都酒店,113.91018895288624,22.518163945670555,广东省深圳市南山区南山街道南新路1028号,10,0,2447,10
31895,皇庭彩园,114.05598699315348,22.5241959423478,福田区皇岗公园四街皇庭彩园,1,0,2412,1
11995,五矿大厦,114.11877785217024,22.540672097187315,罗湖区春风路3006号,1,0,2306,1
32095,天健阳光华苑,114.05072856725764,22.527934904677075,福田区石厦北六街2号天健阳光华苑,3,0,2287,3
24766,港中旅大厦充电站,114.05071165847238,22.54116896677293,福田区深南大道4011号香港中旅大厦停车场负三楼,18,0,2221,18
31948,合正佳园,114.0512486795083,22.528630826390817,福田区益田路3042号合正佳园,3,0,2129,3
33049,金怡华庭,114.05862050874497,22.5268738074926,福田区金田路2003号金怡华庭,6,0,2040,6
35429,金运家园,114.11667174616085,22.61061247453312,龙岗区中兴路42号金运家园,3,0,1954,3
42426,青禾马家龙充电站直流,113.9228170659127,22.554573139764056,深圳市南山区马家龙充电站,0,11,1930,11
32016,星河锦居,114.03917262061869,22.52181001333555,福田区福强路4103号星河锦居星河锦居,1,0,1685,1
33194,中南明珠苑,114.10675173347543,22.616582664989508,广东省深圳市龙岗区布吉街道吉华路240号西南方向46米,3,0,1648,3
31896,皇庭世纪,114.05258635749476,22.528718085040737,福田区益田路3006号皇庭世纪,2,0,1604,2
24475,深圳越海家园充电站,114.00278214092418,22.537817435301392,深圳市福田区紫竹六道与竹子林四路交汇处西北侧越海家园地面停车场,39,0,1598,39
24554,国皇大厦充电站,114.05918404105286,22.53091181553003,深圳市福田区金田路与滨河大道交汇处东南侧,7,1,1593,8
32962,水务集团罗芳管理处,114.14336287040597,22.54467104803405,罗湖区黄贝街道延芳路98号水务集团罗芳管理处,3,0,1583,3
41474,罗湖红岭集团南区住宅区,114.10282683025969,22.55232141234702,广东省深圳市罗湖区桂园街道红岭集团南区住宅区,0,0,1518,0
31941,鸿基花园,114.1161216902568,22.58492034716362,罗湖区金稻田路2055附近鸿基花园,2,0,1508,2
32088,云顶翠峰三期,114.05450513645364,22.521324785554345,福田区皇岗公园街2号云顶翠峰三期,1,0,1486,1
31364,粤海新村,114.13109202081162,22.57537648811176,罗湖区罗湖太安路78号粤海新村,3,0,1423,3
33250,嘉福花园,114.06091265570456,22.519931522398267,广东省深圳市福田区福保街道菩提路18号,2,0,1406,2
31994,丽阳天下名苑,114.04559578292668,22.52791633215257,福田区石厦北五街39附近丽阳天下名苑,8,0,1389,8
17260,深圳东方华都大厦充电站,114.1240456299182,22.553810270488174,广东省深圳市罗湖区文锦中路52号，东方都会负一楼停车场,8,0,1254,8
32030,星河国际,114.04902055023932,22.53436503247537,福田区福华三路269号星河国际,3,0,1186,3
32151,金中环商务大厦,114.05736089291062,22.536919092345286,福田区金田路3037金中环商务大厦,3,0,1155,3
31936,新丰大厦,114.1351118105754,22.567000098084424,罗湖区爱国路3019号新丰大厦新丰大厦,3,0,1133,3
35266,峰度天下,114.1485098097364,22.54471387849284,罗湖区延芳路罗芳村138号峰度天下,2,0,1113,2
12011,星河明居,114.04819257827762,22.52502696816856,福田区福民路南侧,4,0,1098,4
32104,西城丰和,113.87405335934028,22.590212165348163,宝安区西乡大道40号西城丰和,7,0,1075,7
35444,前海金岸,113.91268002081338,22.53601087542895,南山区桃园路前海金岸,5,0,1072,5
32040,景发花园,114.03410418815152,22.55347754440057,福田区莲花路2077号景发花园,3,0,1061,3
25399,卧龙阁小区,114.1394329234218,22.55400745407656,黄贝街道沿河北路1028-6号卧龙阁大厦地面停车场内（免费停车2小时）,5,0,1023,5
35420,东方美地苑,113.914084578142,22.541169180618574,南山区南山南新路与红花路交汇处关口路46号东方美地苑,1,0,1014,1
12000,国贸商业大厦,114.11520304094076,22.543991450462133,深圳市罗湖区人民南路,5,0,989,5
32110,鸿丰大酒店,113.90752088546648,22.51535208814217,南山区东滨路4096号濠盛商务中心鸿丰大酒店,8,0,988,8
13245,深圳京基晶都酒店充电站,114.10054581860882,22.541960598467597,广东省深圳市罗湖区深南东路金融中心大厦南座京基晶都酒店停车位（充电需达15元以上，免停车费3小时）,0,6,968,6
35265,金鼎大厦,114.11991094119,22.54425527091355,罗湖区向西村金鼎大厦,2,0,958,2
33223,惠中名苑,113.91282551421048,22.518762980374824,广东省深圳市南山区南山街道登良路99号,3,0,930,3
35403,康乐村,113.91326037824,22.529591308102503,南山区南新路2061号康乐村,1,0,922,1
12541,深圳广田集团大厦充电站,114.11841222087963,22.547207331508258,广东省深圳市罗湖区深南东路2102号,6,0,920,6
12041,皇岗公园,114.0593992197848,22.526183590492995,福田区福强路皇岗公园南门停车场内,0,5,917,5
11019,深圳南园枫叶大厦充电站,113.91663241800862,22.51923778169156,广东省深圳市南山区南山大道1040号,0,19,856,19
35405,嘉洲华苑,114.03898099953614,22.53108010576932,福田区滨河大道辅道嘉洲华苑,3,0,855,3
32132,南荔苑,113.910287717188,22.51549229977079,南山区东滨路4088号南荔苑,6,0,846,6
33213,天源梅林居,114.05328630430252,22.569108237741258,广东省深圳市福田区梅林街道中康路梅安居首层,3,0,833,3
10041,深圳寰宇大酒店,114.10072881804788,22.54733512568056,广东省深圳市罗湖区广东省深圳市罗湖区红岭中路环宇大厦一楼,1,0,827,1
35490,金域华府二期,114.03887162261124,22.602011379329667,龙华区梅龙大道金域华府二期,3,0,810,3
33235,金威大厦,114.10872417547937,22.54102707791377,广东省深圳市罗湖区南湖街道嘉宾路4047号,3,0,800,3
10066,深圳天安国际大厦充电站,114.1143175747131,22.54393387048802,广东省深圳市罗湖区人民南路3004号,11,0,799,11
33131,湖贝新村,114.1232818465306,22.55003527652792,广东省深圳市罗湖区东门街道乐园路36号,3,0,794,3
33201,荔树人家,114.0285065696182,22.529542977286425,广东省深圳市福田区沙头街道滨河大道辅道与车公庙立交交叉口西100米,3,0,786,3
31942,骏皇嘉园,114.04042929347094,22.52698146659882,福田区新洲九街骏皇嘉园,3,0,772,3
12457,南岗商务大厦充电站,113.91093897282532,22.530078954712263,南山街道南岗商务大厦中南海悦大酒店,18,0,772,18
31911,祥韵苑,114.04939071590312,22.529486448520228,福田区滨河大道与益田路交汇祥韵苑,3,0,769,3
33242,新秀村南区,114.13875032311164,22.54884887373586,广东省深圳市罗湖区黄贝街道延芳路24号,3,0,752,3
35102,云顶翠峰二期,114.05632322896722,22.52097475825699,福田区福强路2016号云顶翠峰二期,2,0,737,2
53206,特瓦特油富商城超级充电站,114.0429698664186,22.650279062651343,深圳市龙华区奋进路油富商城停车场,0,20,651,20
35417,朗苑,113.95867825157414,22.572608084101496,南山区珠光路朗苑,1,0,651,1
10039,投行大厦,114.0467882526478,22.53894723687676,广东省深圳市福田区广东省深圳市福田区福华一路115投行大厦,15,0,648,15
18137,深圳海心汇福园充电站,114.10540782586766,22.620812866055545,广东省深圳市龙岗区吉华路264号,32,0,640,32
32965,理想家园,114.12174181689188,22.592809578871183,龙岗区金稻田路1228号理想家园,12,0,638,12
33220,深华园,113.9136647152497,22.52037423967465,广东省深圳市南山区南山街道南园商业街a栋,3,0,635,3
12034,泰然科技园,114.01954516012935,22.535775052794637,泰然四路与泰然九路交界处露天停车场,3,0,634,3
28079,大世纪花园,114.12189722371896,22.613206866856327,广东省深圳市龙岗区布吉街道政清路21号,2,0,625,2
12635,嘉里建设广场,114.05302280001597,22.538304607808524,广东省深圳市中心4路1号（福华路与中心4路交汇处）,40,22,618,62
32015,星河华居,114.06525577673789,22.5262426686758,福田区福港路26号星河华居,2,0,618,2
32052,金运世纪大厦,114.014956452512,22.536929201522405,福田区深南大道6033金运世纪金运世纪大厦,5,0,617,5
35487,辛诚花园,114.0619324063496,22.53483414037113,广东省深圳市福田区福田街道福华三路11号,2,0,613,2
7485,深圳国际市长中心充电站,113.96169131537616,22.54186274021469,广东省深圳市南山区石洲中路55,5,0,612,5
31361,景园大厦,114.1003109537765,22.555460285628545,罗湖区松园路88号景园大厦,4,0,612,4
10037,海岸城广场,113.93077581099126,22.51998537098985,广东省深圳市南山区广东省深圳市南山区文心四路海岸城购物广场,12,0,610,12
33168,彩天名苑,114.06332096242608,22.53956891282392,广东省深圳市福田区福田街道彩田路3018-1号,3,0,610,3
18451,深圳金山大厦充电站,114.10423820520516,22.54327856801824,广东省深圳市罗湖区深南东路5033-南门,8,0,594,8
12450,清水河站,114.1014664142016,22.58274471184908,红岗路与清水河一路交界处，红岗路继续向北行驶20米即到，79路公交总站内,8,0,593,8
12020,维景酒店,114.11518009865368,22.557412238698333,深圳市罗湖区东门中路2088号,3,0,582,3
27202,深圳罗湖福德花园,114.12837745931,22.54909379256963,深圳市罗湖区深南东路1110号福德花园,5,2,575,7
929,南方电网充电桩（金光华广场）,114.11503781426389,22.542282578383844,广东省深圳市罗湖区人民南路2028号金光华广场B2,20,0,572,20
32999,书香门第上河坊,114.04174652584528,22.60138563406546,龙华区金龙路13号书香门第上河坊,5,0,571,5
35475,万科公园里花园三期,114.15091749540171,22.61028788128955,龙岗区翠山西一巷万科公园里花园三期,3,0,571,3
10246,海上世界广场,113.91126356725158,22.486676128285417,广东省深圳市南山区广东省深圳市南山区蛇口望海路1128号海上世界广场,21,0,569,21
24752,文锦渡口岸充电站,114.12769127377392,22.54254037545124,罗湖区沿河南路1188号文锦渡口岸停车楼五楼、六楼,50,0,567,50
33141,君临天下,114.04113102002822,22.5330293065774,广东省深圳市福田区沙头街道新沙街5号,3,0,566,3
31478,上丰花园,114.0064101187917,22.635318778075597,龙华区新区大道579号附近上丰花园,3,0,564,3
33026,御景华城,114.08085112329836,22.53529657829428,福田区华强南路与滨河路交汇处御景华城,12,0,561,12
35469,锦绣江南一期B区,114.0228850807074,22.63957547553172,龙华区人民路锦绣江南一期B区,6,0,557,6
31968,鸿基大厦,114.11649450641332,22.547476987788013,罗湖区东门中路1011号鸿基大厦,2,0,552,2
31952,缤纷年华,113.92354282394338,22.545571873081634,南山区艺园路荔香公园北侧缤纷年华,4,0,552,4
35406,嘉洲富苑,114.0407831324183,22.52825702023624,福田区新洲九街嘉洲富苑嘉洲富苑,3,0,546,3
28019,彩虹居,113.92777272907529,22.55203600158474,广东省深圳市南山区南头街道大新路38号,3,0,544,3
32149,新浩壹都,114.0639206802533,22.567407436728576,福田区彩田路7018号新浩壹都,10,0,538,10
31393,园东花园,114.0961769584421,22.55538288166205,福田区园岭东路与园岭八街交叉口西北100米园东花园,2,0,534,2
6792,深圳朗山酒店充电站,113.9462444211496,22.5601003183542,广东省深圳市南山区松坪山路7-2朗山酒店停车场,12,0,525,12
32059,时尚名苑,114.04899234417115,22.511920711965196,福田区桂花路与槟榔道交汇处时尚名苑,3,0,512,3
12004,天越翔园,114.16632289081424,22.56666924189265,罗湖区莲塘国威路,3,0,500,3
12026,信息枢纽大厦,114.04600661973588,22.541063985578035,深圳市福田区益田路5055号,4,0,494,4
12038,星河国际,114.04406523530255,22.537735230372597,福华三路269号,5,0,493,5
31342,林栖园,113.96931686229676,22.560990071325374,南山区龙井路53号附近林栖园,3,0,487,3
32019,润福园,114.0349235634202,22.52834078778472,福田区新洲五街59号润福园,1,0,479,1
31934,佳兆业城市广场一期,114.06915446367414,22.66285898871785,龙岗区坂雪岗大道佳兆业城市广场一期,3,0,473,3
31958,金祥都市花园,114.10494487431984,22.5885007043416,罗湖区红岗路1168号金祥都市花园,2,0,462,2
12449,宝安公园站,113.90336469131891,22.58654184696468,宝安公园东南门入口右侧,0,32,462,32
32978,鸿瑞花园,113.92227518181704,22.523925218113323,广东省深圳市南山区南山街道南光路65-7号,3,0,459,3
31893,金牛广场,113.9221179490544,22.53599847182364,南山区桃园路与南光路交汇处金牛广场,3,0,457,3
28104,雅馨居,114.1058604864237,22.551675163326784,广东省深圳市罗湖区桂园街道煤场路28号,3,0,453,3
25403,时尚新居充电站,114.1074490481656,22.57072858067125,笋岗街道宝岗路207号时尚新居地下停车场内,2,0,445,2
12466,皇岗公园充电站,114.0539425882619,22.51883911020793,福田街道福强路2088号皇岗公园,0,5,442,5
35477,文博宫公寓,114.09989748537951,22.60755694655628,龙岗区布吉西环路文博宫公寓,2,0,442,2
25395,大浪充电站,114.0156956945943,22.66900411003648,建辉路（三联村口公交站，128个快充）,0,117,441,117
35502,日豪名园,114.10428611365444,22.552366102524623,罗湖区宝安南路2139-2141号日豪名园,3,0,440,3
33208,余岭山庄,114.23628596641336,22.71254426337329,广东省深圳市龙岗区龙城街道余岭东路11号,3,0,427,3
31882,合正名园一期,114.03882608909076,22.54496292572486,福田区新闻路与景田南路交汇处合正名园一期,2,0,424,2
31443,庆安八卦岭厂房412栋,114.09277421457,22.567163305158346,福田区八卦岭八卦四路412栋庆安八卦岭厂房412栋,3,0,422,3
31388,凯悦绿城,114.0567825487544,22.52031422046809,福田区皇岗公园一街16号凯悦绿城,1,0,412,1
12014,金田大厦,114.11009530132706,22.541487891621884,深圳市罗湖区和平路1199号,1,0,411,1
10042,皇岗口岸停车场,114.0686075976773,22.52139233713529,广东省深圳市福田区广东省深圳市福田区皇岗口岸车港城7楼,3,0,411,3
31846,鸿润豪苑,114.1475695437802,22.605985534520123,龙岗区新塘东一巷与新塘街交叉口西南150米鸿润豪苑,3,0,407,3
31920,前海花园三期,113.90977461849276,22.536476194046333,南山区前海路与桃源路交汇处前海花园三期,2,0,402,2
33127,城建统建楼,114.08764893276307,22.542877259279138,广东省深圳市福田区深南中路2033号城建统建楼,3,0,402,3
33193,华景花园,114.05352662050342,22.567543594307203,广东省深圳市福田区梅林街道梅华路18号,2,0,402,2
32155,理想公馆,114.0564802180006,22.57275860724105,福田区梅林路和中康路的交界处东北位置（上梅林地铁站旁）理想公馆,3,0,396,3
12458,有色大厦,114.02156819648408,22.53792605691747,"深南大道6013号,中国有色大厦负二层停车场纯K车位",14,0,394,14
3892,深圳坪山区坪山体育中心充电点,114.33692543993124,22.67778105100648,广东省深圳市坪山区坪山体育中心停车场内,5,15,390,20
32146,南山茂业时代广场,113.9251861763792,22.522703927697,南山区南山区商业文化中心区海德二道南山茂业时代广场,3,0,385,3
35421,中粮鸿云花园,113.86286299948416,22.58241662797169,宝安区宝安大道与西乡大道交汇处东北面中粮鸿云花园,4,0,381,4
13247,深圳景元大厦充电站,114.10293252811351,22.626493570274643,广东省深圳市龙岗区S360(布龙路),7,0,381,7
33170,名仕阁,114.10295978003516,22.5453573958236,广东省深圳市罗湖区桂园街道解放西路4068号,3,0,376,3
35455,聚龙居,113.97148752964176,22.54080967545389,南山区深南大道9028号聚龙居,3,0,375,3
31341,草埔海关生活区,114.11450866636709,22.58372658692747,罗湖区金稻田路22285号草埔海关生活区,4,0,374,4
31902,香逸名园,114.03576099730202,22.54521012287716,福田区香梅路1036号香逸名园,3,0,373,3
31339,金碧花园,113.87309216826937,22.5921194070385,宝安区宝民二路152号金碧花园,3,0,369,3
12452,宝安游泳馆站,113.8811105554135,22.56320319836418,裕安一路与宝安大道交汇处,0,30,361,30
23605,南塘商业广场,114.1130249801799,22.54701376619349,罗湖区南庆街4号南塘商业广场,6,0,360,6
35404,康达苑,113.91375091521752,22.525861882177185,南山区南新路康达苑,1,0,359,1
12460,新世界中心,114.05058877497102,22.548128255472445,莲花街道益田路新世界中心负三层,47,0,357,47
24741,罗湖渔民村充电站,114.10715999276056,22.53590180600821,罗湖区和平路渔民村地下负二层,12,0,355,12
32022,擎天华庭,114.03907937266368,22.5539947842386,福田区景田路77号擎天华庭,7,0,353,7
31928,嘉洲豪园二期,114.03935629111828,22.52978423418173,福田区滨河大道9011号附近嘉洲豪园二期,2,0,347,2
33033,牛栏前大厦,114.03209765081984,22.636659446067053,龙华区民治大道642号附近牛栏前大厦,4,0,343,4
12023,莲花山东北门,114.11820693851844,22.564292996497624,莲花路与莲花支路交界处,6,0,341,6
11998,民乐P+R停车场,114.0465927120785,22.59447408354438,深圳市龙华新区民乐地铁站C出口P+R停车场,44,21,340,65
32050,富盈门,113.88480912650928,22.58908022116768,宝安区安78区前进二路与流塘路交汇处富盈门,3,0,337,3
35206,合正逸园,114.0652824610832,22.573007088003862,福田区梅林路与皇岗北路交汇北侧合正逸园,3,0,336,3
12461,红岭大厦,114.0989653513228,22.542093024941845,红岭南路,3,0,335,3
35166,福瑞阁,114.0370003668009,22.527176130172844,福田区新洲四街与新洲九街交汇处福瑞阁,1,0,333,1
32133,汇龙湾,114.02310138533409,22.625494033063163,龙华新区民塘路与红木街交叉口西100米汇龙湾,10,0,332,10
33093,金盛苑,113.9499140697894,22.581459843833205,南山区沙河西路3260号附近金盛苑,3,0,329,3
35121,滨海之窗1栋C单元,113.93097551201276,22.52302705686857,南山区海德三道36号滨海之窗1栋C单元,3,0,327,3
31475,百汇大厦,114.10192259999086,22.558196989399395,罗湖区松园北街3019号百汇大厦,8,0,327,8
32273,景新花园,114.04206528001792,22.55690793384344,福田区莲花路2002号景新花园,3,0,322,3
31914,东景花园,114.04306931582124,22.544679370665367,福田区新闻路与商报东路交界处东景花园,1,0,322,1
35103,东方海雅居,113.91899994747016,22.51898896731036,南山区南光路15号东方海雅居,1,0,318,1
32117,鹏基商务时空大厦,114.08992779352208,22.56361152625107,福田区八卦一路50号鹏基商务时空大厦鹏基商务时空大厦,7,0,317,7
32986,华达园一期,114.12386067253314,22.574969709048705,罗湖区翠竹路2058号华达园一期,3,0,316,3
33137,富茂新村,114.02909565300972,22.665228190956707,广东省深圳市龙华区龙华街道清泉路363号,4,0,315,4
35476,万科公园里花园四期,114.1522312681069,22.611248405589457,龙岗区德堂路万科公园里花园四期东侧100米路北万科公园里花园四期,8,0,313,8
12018,新世界中心,114.04517410081009,22.549954067900654,益田路6009号,6,0,310,6
33122,如意家园,113.91717372979582,22.53457749962339,广东省深圳市南山区常兴路102号如意家园,6,0,310,6
12016,宝安科技馆,113.90103615003206,22.56435122209753,宝城4区龙井二路95号,3,0,310,3
33104,华昱花园,114.11965019302492,22.614122401109,广东省深圳市龙岗区吉政路56号华昱花园,3,0,304,3
24518,深圳中泰燕南名庭充电站,114.0884525164982,22.548011874895327,深圳市福田区燕南路88号(振华路与燕南路交汇处)地下停车场,30,0,304,30
18201,深圳南山书城充电站,113.92471061323155,22.52331223636193,广东省深圳市南山区南海大道2899号,10,0,299,10
24523,深圳竹子林家园充电站,114.00688451361486,22.538558099427327,深圳市福田区竹子林五路11号附近竹子林花园停车场,8,0,298,8
35141,龙园创展大厦,114.10689012122492,22.546070043571337,罗湖区宝安南路2010号龙园创展大厦,3,0,294,3
33174,福涛东园,114.0609878620486,22.52445732841242,广东省深圳市福田区福田街道金田路1018号,3,0,294,3
31966,兰亭居,114.06610462340458,22.53018449467561,福田区福港路19号兰亭居,1,0,293,1
31949,康乐园,113.92144852456364,22.5201103867607,南山区南光路66号康乐园,2,0,293,2
35457,富春东方大厦,114.02075264564009,22.540428248475067,福田区深南大道7006号富春东方大厦,4,0,291,4
32066,华为荔枝苑公寓F区,114.07476455769576,22.635976040779116,龙岗区环城路西100米华为荔枝苑公寓F区,6,0,290,6
12465,民乐交通接驳设施社会停车场,114.04626737270274,22.59465968100428,民治街道R+P充电站,44,21,287,65
11018,深圳东方都会大厦充电站,114.1377086211166,22.55075828423723,广东省深圳市罗湖区沿河北路1002号,14,0,287,14
31956,金枫花园,114.14591876966465,22.551536836642768,罗湖区新秀路18号金枫花园,2,0,282,2
28034,东园新村,114.098078331266,22.541341191389908,广东省深圳市福田区南园街道埔尾路16-2号,3,0,281,3
21213,深圳金众金域阁充电站,114.02558517623952,22.60553888754315,广东省深圳市龙华区广东省深圳市宝安区致远南路,8,0,280,8
31827,杭钢富春商务大厦,114.01529549489425,22.53729449737738,福田区深南大道6031号杭钢富春商务大厦,2,0,278,2
12443,莲花山公园充电站,114.05771508592456,22.562089592460826,莲花街道莲花山公园入口右侧,6,0,278,6
12158,深圳民生金融大厦充电站,114.05991821065956,22.545395887515628,广东省深圳市福田区海田路1388号民生金融大厦地下停车场,9,0,271,9
33240,深业花园,114.06086570727447,22.548917899293,广东省深圳市福田区莲花街道海田路1012-2号,4,0,266,4
33045,嘉意台,114.0596462253735,22.52343302216846,福田区金田路1009号嘉意台,3,0,264,3
11997,星河世纪,114.06217785113282,22.54030259449541,福田区彩田路星河世纪,6,0,263,6
33037,百合星城一期,114.11599085105286,22.6005641359139,龙岗区百鸽路109号附近百合星城一期,2,0,263,2
32061,幸福城一期,114.03135225432445,22.66544046077913,龙华新区和平路与清泉路交汇处(地铁4号线清湖站D出口旁)幸福城一期,4,0,261,4
32210,中海日辉台,114.06416834540164,22.64325651157965,龙岗区坂雪岗大道中海日辉台,2,0,259,2
32113,御城豪园南区,114.2059836774932,22.65234531144873,广东省深圳市龙岗区横岗街道松柏路38-48号,4,0,256,4
35496,海云轩,113.88886567023108,22.560805525732256,宝安区44区宝安大道1168号海云轩,3,0,254,3
35419,梅林海关生活区,114.05358394723606,22.56348575618317,福田区宏威路31号梅林海关生活区,3,0,253,3
35522,瑞景华庭,113.9051108302331,22.51672609708974,南山区前海路1030号瑞景华庭,2,0,253,2
32126,华侨城LOFT公馆（锦绣花园四期）,113.98964811061036,22.540319333740584,南山区开平街与锦绣北街交叉口北150米华侨城LOFT公馆（锦绣花园四期）,7,0,253,7
33108,皇嘉商务中心,114.0391273861872,22.60896799029799,广东省深圳市龙华区横岭南路与民兴南路交叉口西50米皇嘉商务中心,1,0,252,1
35407,鸿景豪苑,114.12441535534916,22.613126541195257,龙岗区政清路36号附近鸿景豪苑,1,0,248,1
31886,合正园,114.046072782618,22.565964474497243,福田区梅华路181号合正园,2,0,248,2
24664,深圳和成世纪名园充电站,114.05708513080104,22.62852478912201,深圳市龙岗区布龙路与五和大道交汇处东南侧,75,0,248,75
32014,星河雅居,114.0396595423486,22.52715048358163,福田区新洲九街273号星河雅居星河雅居,2,0,244,2
31986,松坪村三期西区,113.95038461615226,22.562318348972006,南山区松坪街5号松坪村三期西区,9,0,244,9
31454,德兴花园南区,114.10464833317116,22.592309670822573,龙岗区西环路南100米德兴花园南区,3,0,243,3
32122,天然居（内）,114.03111354875703,22.556584668059912,福田区福田香梅路与景田四路交汇处天然居（内）,3,0,242,3
32232,银庄大厦,114.05941036063372,22.523750419432425,福田区金田路1013号银庄大厦,3,0,242,3
18282,深圳南山文体中心充电站,113.918013431022,22.540413128653675,广东省深圳市南山区红花路31号,19,0,235,19
36359,聚龙大厦,114.1220643977777,22.55599984877148,罗湖区文锦中路2123号聚龙大厦,6,0,235,6
32139,香珠花园二期,114.01512528046744,22.54023997157329,福田区农轩路29号香珠花园二期,3,0,232,3
32148,锦龙花园,114.08619604052146,22.53925800676866,福田区南园路159锦龙花园,3,0,230,3
8240,红荔路莲花山充电站,114.04597237943798,22.551341820235237,广东省深圳市福田区红荔路6032号,0,10,227,10
33146,阳光天下家园,114.03844991941348,22.57315454503022,广东省深圳市福田区梅林街道龙尾路8-20号,3,0,225,3
17631,深圳星都豪庭充电站,114.13327902431074,22.61493003390775,广东省深圳市龙岗区布吉街道龙岗大道2504号,32,0,223,32
927,南方电网充电站,114.06473047430622,22.552251887917024,广东省深圳市福田区红荔路5016,13,0,223,13
35467,金地上塘道二期,114.01501453648842,22.63772984754248,广东省深圳市龙华区民治街道上芬西路8号,4,0,222,4
13406,深圳瑞思国际大厦充电站,114.1375170599781,22.550460867330223,广东省深圳市罗湖区沿河北路1002路瑞思国际大厦,17,0,220,17
32124,众鑫科技大厦公共停车场,114.09405541467451,22.56326290573884,福田区福田街道八卦三路31号众鑫科技大厦公共停车场,2,0,218,2
12201,深圳新豪方大厦充电站,113.92090976918412,22.54432958672284,广东省深圳市南山区深南大道188号新豪方大厦,9,0,217,9
35453,金地梅陇镇二三期,114.0279258428918,22.63207885022403,龙华区民福路金地梅陇镇二三期,9,0,213,9
35144,龙园苑,114.13228034108307,22.54486827866297,罗湖区沿河南路3008-10龙园苑龙园苑,3,0,213,3
31940,中粮万福阁,113.88262665333176,22.586056622967863,宝安区流塘路53号中粮万福阁,2,0,211,2
33205,松泉山庄,114.12028230956808,22.580192097442687,广东省深圳市罗湖区东晓街道太白路4064号,3,0,210,3
31353,创富时代名苑,114.26515908960734,22.72516162795389,龙岗区建设路二巷与龙岗路交叉口西南100米创富时代名苑停车场,2,0,208,2
13761,深圳鸿隆世纪广场充电站,114.10938652962967,22.546255957672365,广东省深圳市罗湖区深南东路4002号,38,0,207,38
31848,东方欣悦居,114.0486419117114,22.52651381410641,福田区石厦北二街2号东方欣悦居,1,0,204,1
31450,世贸广场,114.07844031672153,22.54189261395408,福田区福虹路9号世贸广场,3,0,202,3
32045,鲁班大厦（写）,114.03941466953908,22.54997837095208,福田区红荔西路7022号鲁班大厦（写）,3,0,202,3
33000,宝能汽车大楼,114.1017221086378,22.56265984074243,罗湖区梨园路805号附近宝能汽车大楼,3,0,199,3
31937,中粮锦云花园,113.88342843878364,22.58641076783614,宝安区流塘路30-10附近中粮锦云花园,4,0,198,4
31989,新桂花村1.2.3号楼,114.05999014273831,22.51937659187968,福田区保税区菩提路新桂花村1.2.3号楼,3,0,194,3
33091,南威中心花园,114.13895306604584,22.60849437593629,龙岗区布沙路211号南威中心花园,5,0,193,5
35150,麒麟花园二期,113.92357615381864,22.54774975493605,南山区麒麟路与深南大道交汇处麒麟花园二期,2,0,193,2
35466,金地上塘道一期,114.01680484605616,22.638056359889443,龙华区上塘路金地上塘道一期,9,0,192,9
33018,煜丰泽花园广场,114.01600535058935,22.6645667013048,龙华区龙观路415号煜丰泽花园广场,3,0,190,3
33048,龙都花园,113.95473643156056,22.57238453991165,南山区龙珠二路1号龙都花园,3,0,189,3
35428,中粮海滨广场三期,113.88564230815764,22.564827983991574,宝安区创业一路中粮海滨广场三期,3,0,186,3
33064,德兴花园北区,114.10604545089848,22.59390719948952,龙岗区布吉西环路马鞍山十二巷德兴花园北区,3,0,184,3
33216,百合山庄,114.115953750351,22.596687342350148,广东省深圳市龙岗区布吉街道荣华路196号,3,0,183,3
35441,康佳研发大厦,113.95235225737252,22.54223840555076,南山区科技南十二路与高新南一道交叉口东北100米康佳研发大厦,5,0,181,5
12446,宝安国际机场充电站,113.8180006152934,22.64938823357564,机场道前行右转进入机场六道前行与公交道交汇处即可（地铁站出口处）。,0,8,180,8
35525,金碧苑21栋,114.08393972740446,22.574027805515776,罗湖区银湖路2号金碧苑21栋,3,0,180,3
32081,荔山公馆3.4号楼,114.12085617420176,22.59449723159799,龙岗区信鸽路荔山公馆3.4号楼,2,0,178,2
33176,梅林二村停车场,114.04008393144667,22.56726488544825,广东省深圳市福田区梅林街道梅中路5-5号,7,3,178,10
12022,沙嘴红旗岭,114.0268306671064,22.52777548010068,福田区沙嘴路红旗岭综合楼,4,0,175,4
32153,深圳市前海华侨城JW万豪酒店/华寓,113.87524837531392,22.550079907095625,宝安区宝兴路8号深圳前海华侨城JW万豪酒店深圳市前海华侨城JW万豪酒店/华寓,5,0,174,5
921,特斯拉充电站（皇庭广场站）,114.05471116534376,22.536401440389177,广东省深圳市福田区福华路皇庭广场b2层,0,1,174,1
10642,深圳金沙摩尔充电站,114.19976233515814,22.650217636222568,广东省深圳市龙岗区四联路54号,28,0,174,28
24563,迈科龙大厦充电站,113.94953436670195,22.5385744847673,深圳市南山区高新南六路6号,1,0,172,1
32056,环球数码大厦,113.9314704179177,22.546609503144573,南山区高新中三道9号环球数码大厦,4,0,172,4
35504,侨城馨苑,113.96215252140324,22.551965229951893,南山区香山西街101号侨城馨苑,3,0,172,3
12008,海松大厦,114.01844872237692,22.53379748613989,福田区车公庙泰然九路,18,0,171,18
2359,宝安体育中心充电点,113.87791547446332,22.56421676536665,广东省深圳市宝安区新湖路2112号,0,16,171,16
33195,坤祥花语馨,114.11204239621166,22.6162012159103,广东省深圳市龙岗区布吉街道锦绣新村四巷8号,3,0,171,3
32010,皓月花园,114.03945574676314,22.62042270939804,宝安区民康路116号皓月花园,2,0,168,2
32185,诺德假日花园,113.89905745097845,22.514394416222355,南山区前海路369号诺德假日花园,6,0,168,6
17262,深圳雍和园充电站,113.8816072188646,22.59054274395528,广东省深圳市宝安区前进二路辅路,32,0,168,32
12473,罗湖维景酒店,114.11827590204474,22.55231964876237,东门街道中兴路2088号深圳维景酒店,10,0,167,10
35439,固戍华庭,113.8557243648621,22.60443207048237,广东省深圳市宝安区西乡街道固戍一路48号,2,0,164,2
31980,信义假日名城沁芳园,114.119366693444,22.599329110224748,龙岗区罗岗路80号信义假日名城沁芳园,2,0,164,2
28114,锦绣花园三期,113.99158040593068,22.53893658995087,广东省深圳市南山区沙河街道锦绣北街2-2号,6,0,163,6
25555,丽雅查尔顿酒店地下慢充充电站,113.94465599466665,22.538371142056747,深圳市南山区高新科技园高新南四道13号（中兴通讯大厦南侧）,25,0,163,25
35424,鸿园居,114.12918142307576,22.576864056804872,罗湖区布心路2037号鸿园居,3,0,163,3
35157,百合星城二期,114.11667147411292,22.599474716065934,龙岗区湖南路53号附近百合星城二期,3,0,162,3
6793,深圳城市假日充电站,113.97334940873232,22.56618094119514,广东省深圳市南山区西丽镇龙珠大道与龙珠五路交界处,5,0,162,5
31950,合正瑞园,114.09691705874688,22.567241549787383,福田区八卦四路18号合正瑞园,3,0,162,3
32990,西丽同富裕工业区,113.97924160083367,22.58866264723637,南山区塘兴路171号西丽同富裕工业区,5,0,161,5
33157,黎明大院,114.11992577293704,22.55293145283703,广东省深圳市罗湖区东门街道翠园街12号,3,0,159,3
33043,健君园,114.06281441062347,22.57369362461664,福田区彩田北路7024号健君园,3,0,157,3
32960,水务集团南山管理处,113.92585501160404,22.5457944437029,南山区南海大道3033号水务集团南山管理处,2,0,157,2
19077,深圳鼎新大厦充电站,113.94861255506932,22.584045902060925,广东省深圳市南山区留仙大道2014鼎新大厦停车场,12,0,157,12
28096,雅仕居,114.10881117132271,22.576722267220056,广东省深圳市罗湖区清水河街道泥岗东路1108-5号,6,0,155,6
12810,罗湖体育馆充电站,114.14616751565384,22.557390750914603,广东省深圳市罗湖体育馆,0,2,155,2
10241,兴业小区,113.89622639473352,22.57397257937536,广东省深圳市宝安区广东省深圳市宝安区宝城25区深圳市兴业有限公司兴业停车场,10,0,154,10
33183,润华苑,114.03684153512998,22.56982347590507,广东省深圳市福田区梅林街道梅林路138-2号正南方向100米,5,0,154,5
33241,茵悦之生花园,114.10625979364062,22.630955691023395,广东省深圳市龙岗区布吉街道松源路1号,4,0,153,4
35153,育德佳园一期,113.92794488875168,22.513483638328815,南山区后海大道东侧、北师大附小西侧育德佳园一期,3,0,152,3
19278,深圳讯美科技广场充电站,113.94237340177224,22.549197296793583,广东省深圳市南山区科华路3号,41,0,151,41
8344,深圳天安创业园充电站,114.02499292425186,22.536128959055716,广东省深圳市福田区天安数码城内泰然四路与泰然五路交汇处,12,0,151,12
2201,奥特迅充电点,113.94691497761204,22.557979718048024,广东省深圳市南山区松坪山路5,0,32,150,32
31829,御锦公馆,114.05301393624896,22.573899930229175,福田区广康路1号御锦公馆,1,0,149,1
18952,深圳星河中心大厦充电站,114.05626348284146,22.53727284320584,广东省深圳市福田区星河中心大厦地下停车场,20,0,149,20
33058,桑泰丹华园三期,113.9611775788119,22.590552445668017,南山区西丽桑泰丹华园(哈尔滨工业大学西)桑泰丹华园三期,5,0,145,5
35401,特发小区,114.025945888834,22.55770856060398,广东省深圳市福田区香蜜湖街道香梅路27号,3,0,145,3
32049,富通蟠龙居,113.86466712538449,22.578188918765445,宝安区西乡街道西乡新城大道58区富通蟠龙居,3,0,145,3
33120,御河堤,114.09884644794457,22.540712048209382,广东省深圳市福田区南园街道红岭南路1035号,6,0,144,6
33100,鑫海公寓,114.03867141756228,22.605904996140328,龙华区民治街道梅龙路127号鑫海公寓,6,0,143,6
33065,凯旋豪庭,114.0419906702866,22.550647806216706,福田区红荔西路7018号凯旋豪庭,3,0,143,3
32172,雅豪祥苑,114.25186910357918,22.726583823623933,龙岗区龙河路雅豪祥苑,3,0,142,3
32144,东方御花园,114.2302112103248,22.72937746632503,龙岗区龙岗中心城龙福西路东方御花园,2,0,140,2
32993,英郡年华假日广场时光里,114.14504625314082,22.621815150111168,广东省深圳市龙岗区南湾街道岭背路24号,4,0,140,4
24222,深圳宝源行充电站,114.0107907254361,22.53532824443972,广东省深圳市福田区竹子林对面福强路北福安大厦,6,0,140,6
32989,福景花园,114.01791220001064,22.651017090238675,龙华区建设路208号福景花园,3,0,139,3
32977,福安阁,113.91492502895238,22.530693663486943,南山区学府路135号福安阁,6,0,138,6
28111,东海十八居,114.02003641076796,22.54291934149138,广东省深圳市福田区香蜜湖街道香轩路10号,3,0,138,3
31892,日出印象一期,114.02173400802376,22.635533296223976,龙华新区人民路日出印象一期,1,0,137,1
31981,信义假日名城博雅园,114.11864542059432,22.59735479664449,龙岗区百鸽路317号信义假日名城博雅园,4,0,137,4
33228,海鹰大厦,114.13235236117468,22.584036684461356,广东省深圳市罗湖区东晓街道东湖路80,3,0,137,3
17209,深圳凤凰大厦充电站,114.05955463005976,22.54475520096572,广东省深圳市福田区深南大道2008-6凤凰大厦地下停车场,16,0,136,16
24735,英唐大厦充电站,113.94203393865794,22.53811508237147,高新园科技南五路五号地面停车场,12,0,135,12
32987,华达园二期,114.12461758273244,22.57656353991512,罗湖区布心路与布心路入口交叉口南50米华达园二期,2,0,134,2
19188,深圳公园一号广场充电站,113.92068232636944,22.517952779801803,广东省深圳市南山区南山街道创业路3023号凯德·公园1号,35,0,133,35
33178,新活力花园,114.04088697088196,22.57079098929664,广东省深圳市福田区梅林街道梅林路128-18号,3,0,133,3
4542,共乐大厦站,113.86515748588702,22.581796182032512,广东省深圳市宝安区宝安大道与西乡大道交汇处（共乐大厦停车场）,0,16,132,16
39415,桦浩泰工业园（T）,114.02745811038122,22.674175142148822,龙华区龙观大道12号桦浩泰工业区,9,6,130,15
31927,荔苑小区,113.9169834617616,22.53086406713671,南山区学府路121附近荔苑小区,1,0,129,1
33025,翠景山庄,114.12282461296464,22.58095515499734,罗湖区翠竹北路30号翠景山庄,3,0,129,3
35422,德兴城,114.10852793443644,22.61125872970492,龙岗区吉华路222-25号德兴城,3,0,129,3
32017,中信红树湾南区,113.9600386075449,22.530835831710554,南山区白石路二道中信红树湾南区,5,0,129,5
33084,缔梦园,114.0370479353849,22.55452615218097,福田区景田西路与莲花路交叉口东150米缔梦园,2,0,128,2
31993,香蜜三村,114.04229008801732,22.548840884002477,福田区景田南四街30号香蜜三村,3,0,128,3
33078,泰和花园,114.13216359459248,22.58593938747115,罗湖区东晓路4005号泰和花园,5,0,127,5
19068,中信龙盛中心充电点,114.29278740700832,22.72559116263538,广东省深圳市龙岗区同富路,16,24,127,40
12438,世纪假日广场充电站,113.96843916816402,22.541351265302637,南山大道世纪假日广场,43,0,126,43
8250,罗湖清水河直流充电站（普天力能）,114.10209083291232,22.581678442802037,广东省深圳市罗湖区红岗路1088-1,0,8,126,8
32007,海怡东方花园2号停车场,113.94635239823144,22.529282394269305,南山区高新南十道3号海怡东方花园2号停车场,4,0,124,4
8244,科苑南公交总站充电站,113.94175538920052,22.527531847654668,广东省深圳市南山区高新南环路35南门,0,5,122,5
24720,深圳花样年花郡充电站,113.8783429807508,22.56787220766031,深圳市宝安区明玉路11号花样年花郡小区,6,0,121,6
31376,书香门第名苑,114.03947128529434,22.59987304495255,龙华区金龙路与革新街交叉口东南100米书香门第名苑,4,0,121,4
25404,万事达名苑,114.13046099341868,22.57137132842623,翠竹街道太宁路185号万事达名苑地面停车场内,5,0,120,5
32064,富通苑,113.8810353797918,22.569148028401514,宝安区48区上川一路与宝安大道交汇处富通苑,1,0,120,1
11999,新闻大厦,114.09067475585198,22.549881609380957,深圳市福田区深南大道与红岭路交汇处,4,0,119,4
35416,龙联花园,113.95767530796152,22.572193485252427,南山区南山龙珠大道与龙珠二路交汇处龙联花园,3,0,119,3
25401,华能大厦负三层充电站,114.08462142946917,22.544028850972392,华强北街道深南中路2066-2068号华能大厦地下停车场负三层（16个3.5千瓦慢充）,16,0,118,16
6495,深圳农科商务楼充电站,114.01387856665144,22.542965033648063,广东省深圳市福田区红荔西路8153号农科商务楼,6,0,118,6
32961,水务集团泥岗管理处,114.09652628125532,22.57045519238152,罗湖区泥岗西路1008号水务集团泥岗管理处,3,0,117,3
32174,逸湖居,114.11808975784778,22.570022875145828,罗湖区文锦北路与洪湖路交叉口东南100米逸湖居,3,0,117,3
33246,怡园大厦,113.92243730728508,22.529449963771416,广东省深圳市南山区南山街道学府路101-1号,4,0,116,4
33154,青湖山庄,114.10125626400028,22.587580456575957,广东省深圳市罗湖区清水河街道红岗路1243号,3,0,115,3
35411,海松大厦,114.01808874462392,22.5338554103748,福田区泰然九路海松大厦海松大厦,9,0,114,9
33184,1866佐阾荟南区,114.02445940961664,22.628519807317826,广东省深圳市龙华区民治街道民兴街18号,3,0,112,3
35167,鹏丽大厦,114.08147128916129,22.535639356509957,福田区华强南路1039号鹏丽大厦,2,0,111,2
33143,润裕花园,114.03921099486028,22.569751927969936,广东省深圳市福田区梅林街道梅林路134-16号,3,0,110,3
4543,西乡公园站,113.87605188036204,22.579212939755998,广东省深圳市宝安区西乡公园正门前停车场,0,16,109,16
31496,迷你新居,114.04082118443324,22.56517291794221,福田区泰科路1号迷你新居,3,0,108,3
35427,中粮海滨广场二期,113.88487618021188,22.56533055375924,宝安区创业一路中粮海滨广场二期,3,0,108,3
31922,桃源村三期,113.98060913358267,22.560200767262568,南山区桃园村桃源村三期,4,0,107,4
32136,缤纷时代家园,114.12046121621124,22.553995336538254,罗湖区东门中路2112号缤纷时代家园,7,0,107,7
18928,深圳尚水天成充电站,114.10187496791,22.61911232846072,广东省深圳市龙岗区官坑南六巷,18,0,106,18
10040,怡景中心城,114.05471140668682,22.538521356303647,广东省深圳市福田区广东省深圳市福田区福华一路3号中心城广场,76,0,106,76
24725,幸福万象充电站,114.10582931109492,22.53552330104733,罗湖区万象城边和平路与船步路交汇处地下一层,16,0,106,16
35430,深云村西区,113.9875521432462,22.557372377351484,南山区深云路28号深云村西区,5,0,106,5
31880,体育中心附属楼,113.95333825627893,22.575157994819037,南山区龙珠大道西丽中学旁体育中心附属楼,2,0,105,2
33145,赤尾村,114.07989206906733,22.53269694577688,广东省深圳市福田区南园街道赤尾二街52号,2,0,105,2
32176,新世界广场一期商业停车场,114.20211774966472,22.65070600422177,龙岗区湛宝路新世界广场一期商业停车场,2,0,104,2
33177,华昱苑,114.0204581935926,22.655881678689248,广东省深圳市龙华区龙华街道人民路4084号,1,0,104,1
31918,教师公寓,113.97895330607751,22.55896731523612,南山区龙珠八路2号教师公寓,1,0,104,1
925,特斯拉充电站（招商证券深圳科技园高新南一道证券营业部）,113.94771167799784,22.541970227603493,广东省深圳市南山科技园高新南一道TCL大厦招商证券,1,0,104,1
11996,国际科技大厦,114.0729269657205,22.544912402994413,福田区福虹路11号,3,0,103,3
35514,龙福一村,114.24121908092673,22.72776863727576,龙岗区德政路95号龙福一村,3,0,102,3
31903,清湖花半里,114.04274146115968,22.67509467757789,龙华新区大和路与清华路交汇处清湖花半里,6,0,102,6
33017,湾厦花园,113.92659687648482,22.4962878332458,南山区蛇口爱榕路36号湾厦花园,3,0,100,3
31447,滨河新村东区,114.0972392675929,22.539116133536115,福田区同心南路与东园路交汇处滨河新村东区,3,0,100,3
33148,南华花园,114.08245198154908,22.53866824020085,广东省深圳市福田区南园街道华强南路2002号,3,0,100,3
12462,汉京大厦,113.92002511991586,22.514288433515155,南山街道南海大道1203号汉京国际,21,0,99,21
35517,登良花园,113.91600074211284,22.51672962167101,南山区登良路68号登良花园,2,0,96,2
33060,阳光花地苑,113.90864102454144,22.52128498783173,南山区前海路1082号阳光花地苑,3,0,96,3
12037,泰然大厦,114.01745138549532,22.533300577307017,泰然八路与泰然十一路交叉口,3,0,95,3
12036,汉京大厦,113.91486314478144,22.517770161693687,南山南海大道与登良路交汇处西南角,6,0,95,6
33158,名城国际广场,114.13529814549057,22.620940841709515,广东省深圳市龙岗区布吉街道龙岗大道375号,2,0,94,2
33075,华丽园,114.12415169292063,22.562303961793468,罗湖区翠竹路1053号华丽园,3,0,94,3
12579,深圳朗科大厦充电站,113.94817021732466,22.539139519215837,广东省深圳市南山区高新南四道朗科大厦,10,0,93,10
35120,滨海之窗写字楼,113.93251627102237,22.523363510040756,南山区文心五路与海德四道交叉口西50米滨海之窗写字楼,2,0,93,2
35104,锦冠华庭,114.1338459190867,22.70204750480846,龙岗区凤凰大道锦冠华庭,2,0,92,2
32076,天健世纪花园南区,114.05964486924157,22.54849990005004,福田区福中一路1013号天健世纪花园南区,3,0,92,3
35183,水木华庭,113.97543181281672,22.56540930617489,南山区龙珠六路与龙苑路交汇处水木华庭,5,0,91,5
31889,合正汇一城,113.85934045473098,22.579056677182177,宝安区西乡大道与新湖路交汇处合正汇一城,7,0,91,7
32080,荔山公馆8号楼,114.12279755928144,22.595636528570765,龙岗区深圳市龙岗区布吉萝岗路181号荔山公馆8号楼,3,0,91,3
33175,太白居,114.13393276298038,22.58330021680889,广东省深圳市罗湖区东湖街道东晓路3038号,3,0,91,3
33107,布吉慢城二期,114.12534119624463,22.627664265676994,广东省深圳市龙岗区景芬路5号布吉慢城二期,3,0,90,3
35423,金桂大厦,114.0580819881521,22.517242688676383,福田区菩堤路68号金桂大厦,3,0,90,3
33249,荟芳园,113.92361536763904,22.53118105698264,广东省深圳市南山区南头街道南光路164号,6,0,90,6
32181,康佳苑,113.98730474733848,22.53907087648066,南山区汕头街8号康佳苑,3,0,90,3
12470,濠江社区公园充电站,113.89926917877698,22.56253955675141,海雅缤纷城公交站台旁,0,32,89,32
32168,半岛城邦一期二期,113.92654158627852,22.48470967073029,南山区金世纪路与望海路交汇处半岛城邦一期二期,6,0,89,6
24496,深圳软件园一期①充电站（直流）,113.93416187166136,22.54764273228929,南山区粤海街道高新中三道2号西门软件园一期（1栋旁）,0,2,89,2
7742,深圳湾体育中心充电站,113.9453493063571,22.52346889570829,广东省深圳市南山区深圳湾体育中心,44,0,88,44
31324,城市花园二期,114.23506683861922,22.731740776338988,广东省深圳市龙岗区龙城街道盘龙路与龙平西路交叉口西南100米,2,0,88,2
31327,海上世界文化艺术中心,113.91154870083705,22.48323608809604,南山区望海路1187号(招商局广场对面)海上世界文化艺术中心,6,0,87,6
24744,投行大厦充电站,114.0465488378707,22.539175371172007,福田区福华一路南侧投行大厦地下四层,15,0,86,15
24451,云顶嘉园充电站,113.88479454625782,22.57861421312037,宝安区新安四路313号云顶嘉园地面停车场,18,0,86,18
32084,景田天健花园,114.02863851698758,22.559849053110536,福田区景田北六街2景田天健花园,3,0,85,3
33038,南油文化广场,113.9240674764518,22.508546098132364,南山区内环路与爱榕路交叉口西北100米南油文化广场,4,0,85,4
33212,民宁园,114.06206817920516,22.563821777943723,广东省深圳市福田区莲花街道彩云路8号,3,0,84,3
10034,中国储能大厦,113.94058796308424,22.5427302140444,广东省深圳市南山区广东省深圳市南山区深圳南山科技园南区深南大道与科苑路交汇处,25,0,84,25
12040,世纪假日广场,113.96771880861598,22.541450458769464,南山区深南大道9030号,46,0,84,46
33102,华荣工业区,113.98705301655752,22.69181889689697,广东省深圳市龙华区华荣路564号华荣工业区,3,0,84,3
31913,南油生活B区,113.92420775979002,22.51264194210433,南山区南海大道与登良路交汇处南油生活B区,1,0,84,1
12031,深圳少年儿童图书馆,114.08931751108452,22.55601449753216,深圳市福田区红荔路1011号,4,0,82,4
31931,宝翠苑,114.11686322707872,22.586180874401016,罗湖区金稻田路围岭公园旁宝翠苑,3,0,82,3
33156,宾馆花园,114.0146972567907,22.66167974123547,广东省深圳市龙华区人民路沿河路19号,3,0,81,3
35425,鸿威海怡轩,114.29949000428635,22.598592849823856,盐田区彩陶路6号鸿威海怡轩,4,0,80,4
32105,万科红,114.121811622494,22.601743335805068,龙岗区布吉街道锦龙路与惠康路交汇处万科红,9,0,80,9
31887,合正中央原著南区,114.01738392679754,22.6330784429173,龙华新区人民路与布龙路交汇处合正中央原著南区,3,0,80,3
35431,星河世纪,114.06232731809664,22.54159218665292,福田区彩田路3069号星河世纪,6,0,80,6
31943,和平里花园一期,114.0068586605912,22.6457022662138,龙华新区民塘路附近和平里花园一期,3,0,79,3
32129,香蜜新村,114.0352180243424,22.5498431862664,福田区香梅路1074号香蜜新村,1,0,79,1
8132,深圳天安数码时代充电站,114.0278255462854,22.537490194989505,广东省深圳市福田区泰然四路5号天安数码时代地面停车场,14,0,78,14
12042,市二院,114.08717470704636,22.56565363786717,福田区笋岗路深圳市二医院,0,10,78,10
32054,中洲华府一期,113.8997743854777,22.576805137707627,宝安区公园路西一巷中洲华府一期,6,0,78,6
35436,爱心大厦,113.91080531769856,22.528102755577475,南山区前海路1366号爱心大厦,2,0,78,2
31825,云顶翠峰一期,114.0561631033597,22.52052519022906,福田区福强路2016号云顶翠峰一期,1,0,77,1
32964,展滔科技大厦,114.03206646756644,22.6429275732282,广东省深圳市龙华区民治街道民治大道1079号,3,0,77,3
32109,丽景城,113.8823761131122,22.592040827740774,宝安区前进二路100丽景城,6,0,76,6
7323,深圳华盛盛荟名庭充电站,113.888412270187,22.576512789617357,广东省深圳市宝安区建安一路645号深圳华盛盛荟,21,0,75,21
24520,深圳天一名居充电站,114.04182828695274,22.55776155402084,深圳市福田区深圳市福田区莲花街道商报东路129号,10,0,75,10
25415,盐田区海安居（沙头角工作站）充电站,114.21969558231235,22.55922642189292,沙头角园林路8—2号蓝色海安居（沙头角工作站）,7,0,74,7
31971,民政公寓,113.92147812328864,22.532307033869024,南山区康苑路3号民政公寓,1,0,74,1
33198,锦岗小区,113.81892809542822,22.7342423867214,广东省深圳市宝安区沙井街道坣岗大道143号,3,0,74,3
35500,玉湖湾,113.8446414373095,22.575621219483978,宝安区兴业路与银田路交叉口西150米玉湖湾,6,0,74,6
33144,四海公寓,113.92654182456876,22.49720264634182,广东省深圳市南山区蛇口街道后海大道46号,6,0,73,6
12821,深圳豪方花园充电站,113.92883312670024,22.546549328578187,广东省深圳市南山区南海大道4040豪方花园小区,12,0,73,12
33039,龙华公寓,114.03786786889916,22.651367384241517,广东省深圳市龙华区龙华街道民清路6号,3,0,73,3
33002,方鼎华庭,113.91907239845813,22.553798042430625,南山区南山大道3908号方鼎华庭,3,0,72,3
32027,宝能太古城北区,113.9341694067605,22.504408901759067,南山区中心路深圳湾段2233号宝能太古城北区,2,0,72,2
10240,深圳观澜格兰云天大酒店,114.03583093037136,22.693854275289297,广东省深圳市龙岗区广东省深圳市龙华新区观澜大道环观南路交汇处一楼架空停车场,10,0,72,10
32173,东方明珠城,114.24875795271215,22.72094469009717,龙岗区龙岗街道龙河路39号东方明珠城,1,0,72,1
35137,雅庭名苑,114.22404920682648,22.704109211886497,龙岗区龙翔大道雅庭名苑,2,0,72,2
35117,上塘商业大厦,114.01616653981574,22.647423892518137,龙华区工业路与电站路交叉口西南50米上塘商业大厦,3,0,71,3
10242,曙光大厦,113.95195354407852,22.54066132861916,广东省深圳市南山区广东省深圳市南山区科技南十二路曙光大厦地下停车场,5,0,71,5
18112,深圳胜发大厦充电站,113.90834061923395,22.49506495198,广东省深圳市南山区沿山路23号,11,0,71,11
33169,青春家园,113.92331552109044,22.520185964108517,广东省深圳市南山区粤海街道南海大道2718号C座,6,0,71,6
32039,丰泽湖山庄18、19、20栋地库,114.04967595697087,22.597047763428588,龙华新区龙华民治民乐新村梅观高速梅林关口旁丰泽湖山庄18、19、20栋地库,1,0,69,1
922,南方电网和谐充电站,114.22218232442684,22.724967202911973,广东省深圳市龙岗白灰围一路5号,0,4,69,4
35184,中南花园,113.89600277691578,22.55384467633574,宝安区宝安大道与新安一路交汇处中南花园,2,0,69,2
21662,深圳万象新天二期充电站,113.84203124791075,22.605558327520622,广东省深圳市宝安区广东省深圳市宝安区西乡街道华尚万象新天,9,0,68,9
21838,深圳旭生大厦充电站,113.85881952098208,22.58697808780518,广东省深圳市宝安区旭生大厦,6,0,68,6
25535,深圳龙华区龙观路充电站,114.0230873815904,22.67060959069926,广东省深圳市龙华区龙观东路249号（鑫富实业旁）,0,40,68,40
7983,深圳七巧国充电站,113.85162870316525,22.571236045173524,广东省深圳市宝安区兴业路3003-7,10,4,68,14
24536,深圳盛荟居充电站,114.01125409970297,22.63870277657218,深圳市龙华区上芬小学路与民塘路交叉口西北100米盛荟居,29,0,67,29
31325,阳光天地家园,114.12267479766248,22.570019718641365,罗湖区贝丽北路2号阳光天地家园,3,0,67,3
35413,泰然大厦,114.01663196308154,22.53321241462149,福田区云松大厦对面泰然大厦,4,0,67,4
32164,波托菲诺天鹅堡一期,113.97235977035936,22.550396642646728,南山区香山中街波托菲诺天鹅堡一期,3,0,67,3
10243,百度大厦,113.93776316600966,22.528070277594047,广东省深圳市南山区广东省深圳市南山区科技园学府路东百度国际大厦停车场,4,0,66,4
32196,创兆广场,114.2321950155039,22.70267043399515,龙岗区龙岗大道龙岗段2046号创兆广场,3,0,66,3
32209,沙井长丰酒店,113.8373422394269,22.737180649613567,宝安区沙井新桥北环路口沙井长丰酒店,6,0,65,6
32167,远洋新干线一期,114.25664507569384,22.72112115346825,龙岗区刘屋路远洋新干线一期,3,0,65,3
12464,普天新能源coco city充电站,114.03967556367223,22.606881723830934,民治街道民乐山庄星河盛世(民治大道),18,0,65,18
12811,南山智园充电站,113.99814717923029,22.595322627859492,广东省深圳市桃源街道南山智园负一层A5区,15,0,65,15
35412,红松大厦,114.01930577909224,22.534437693024216,福田区泰然六路50号红松大厦红松大厦,3,0,65,3
35510,金水湾,114.25238702948612,22.594102687977507,盐田区盐田路89-7号附近金水湾,4,0,64,4
25402,今日家园充电站,114.1314617693928,22.58414201273976,深圳市罗湖区东昌路78号今日家园小区地面停车场内,9,0,64,9
31991,鸿景翠峰花园,114.18490773933958,22.56001012067676,罗湖区罗沙路2016号鸿景翠峰花园,9,0,63,9
31390,园中花园,114.09333498377498,22.554418064149267,福田区园岭四街6号园中花园,2,0,63,2
31884,合正锦园南区,114.172920624359,22.565518495719427,罗湖区莲塘梧桐山西南麓国威路东端合正锦园南区,3,0,63,3
33149,下步庙北区,114.08323823803568,22.54028470415102,广东省深圳市福田区南园街道南园路229号,3,0,62,3
31988,新桂花村,114.0588013007186,22.517976252153566,福田区菩提路新桂花村,2,0,61,2
33248,龙光玖龙玺,114.03704949573044,22.603504156519836,广东省深圳市龙华区民治街道赤公坑路15号,4,0,61,4
33086,海湾明珠花园,113.85576223518284,22.57809035140857,宝安区悦和路2号海湾明珠花园,3,0,60,3
31961,山语清晖E区,114.0101553054741,22.568548629307145,福田区香蜜湖福龙路西侧、北环大道北侧的香蜜湖半山区山语清晖E区,2,0,60,2
33105,大世纪杰座,114.12212422692498,22.615332639082403,广东省深圳市龙岗区布龙路29号大世纪杰座,3,0,60,3
31842,卓越城市中心花园,114.18889626626088,22.65001403735085,龙岗区恒心路2号卓越城市中心花园,4,0,60,4
36565,宝安黄田鸿丰华充电站,113.84289889027843,22.62942348620182,深圳市宝安区黄田村内工业区29号鸿丰华互联网产业园,0,2,60,2
24596,爱华小区充电站,114.08438295322854,22.541556635589465,深圳市福田区华发南路68号爱华住宅小区14栋北侧,6,0,59,6
32051,富瑰园,113.87904142770654,22.585689553926,宝安区富瑰路27号(宝安新安路与西乡大道交汇处)富瑰园,3,0,59,3
33167,椰风海岸,113.9064749709916,22.53450752926028,广东省深圳市南山区南头街道桃园路305号,6,0,59,6
32202,第五园四期,114.06087277979398,22.615864930680942,龙岗区南坑路与文化街交叉口东北100米第五园四期,9,0,59,9
26615,深圳南山南玻电子大厦,113.93703499725552,22.55831577253904,深圳市南山区西丽街道科技北三路1号南玻电子大厦1楼A2,0,20,59,20
2200,中海凯丽充电点,114.21015927695731,22.706392285804156,中国广东省深圳市龙岗区大运路168,3,0,58,3
32053,海宁公寓,114.01041928598816,22.648873071001063,龙华新区龙华新区新区大道1002号海宁公寓,5,0,58,5
35418,金溪大厦,114.11501112359316,22.55616641428661,罗湖区书院街11号金溪大厦,1,0,57,1
33245,梅龙阁,114.0410400680788,22.596252364441547,广东省深圳市龙华区民治街道新区大道3号,3,0,57,3
12019,中心城,114.05468455569752,22.538514263160327,深圳市福田区福华一路3号深圳中心城,3,0,56,3
33123,水云间雅居,114.30960328150566,22.60186331090081,广东省深圳市盐田区大梅沙村盐梅路60号水云间雅居,3,0,56,3
31883,合正锦园中区,114.1738922981566,22.56612956295425,罗湖区莲塘梧桐山西南麓国威路东端合正锦园中区,3,0,56,3
3894,盐田区政府图书馆充电站,114.22576341912942,22.704864501118298,广东省深圳市盐田区深盐路2086号停车场,0,20,56,20
32077,富通好旺角一期,113.88469103067597,22.56094610671812,宝安区创业一路2108富通·好旺角一期富通好旺角一期,2,0,56,2
33226,高山花园,113.91125697474163,22.50478372505746,广东省深圳市南山区招商街道工业八路301号,6,0,56,6
33185,东和花园,114.02745088269066,22.66359480677318,广东省深圳市龙华区龙华街道和平路156号,6,0,55,6
4548,灵芝公园站,113.90468099940534,22.57292080641692,广东省深圳市宝安区灵芝公园东停车场内,0,16,55,16
12448,新安公园站,113.90557179342808,22.56625716381873,新安公园公交站台旁,0,32,55,32
12472,银盛大厦,114.09752340032772,22.55147894260143,银盛大厦红荔路1001号,4,0,55,4
18917,深圳万科香榭茗园充电站,114.01629520692263,22.54486952512423,广东省深圳市福田区农垦路15香榭茗园地下停车场,6,0,55,6
11276,深圳悠然居充电站,113.91602167216703,22.503126836641307,广东省深圳市南山区南海大道1081-5,6,0,55,6
32969,保利上城,114.2319745179364,22.70735737701812,龙岗区怡翠路与龙岗大道交叉口北150米保利上城,10,0,55,10
38967,深圳市宝安区新园工业区充电站,113.84999854046264,22.60468433767594,深圳市宝安区西乡街道固戍一路575号第一栋厂房一楼东边,3,3,55,6
13763,深圳创维大厦充电站,113.94627187398297,22.54215431186945,广东省深圳市南山区高新南一道8-南门创维大厦停车场,17,0,55,17
39391,宝安区机场大酒店充电站,113.81934348495884,22.650718878935447,深圳市机场大酒店,0,12,54,12
32085,天安高尔夫花园,114.02820713498382,22.53443124632916,福田区滨河大道9280天安高尔夫花园,2,0,54,2
18410,深圳老兵大厦充电站,113.84422053572165,22.577237528088872,广东省深圳市宝安区兴业路3012号,8,0,54,8
8251,新闻大厦充电站,114.09790195495512,22.544268078672232,广东省深圳市福田区深南中路1002,25,0,53,25
18858,深圳华润万家二期充电站,113.82335562680512,22.73121081427714,广东省深圳市宝安区沙井镇新沙路与中心路交汇深明丰大厦地上停车场,13,0,53,13
33061,金洲嘉丽园,114.06446917994477,22.63571293664295,龙岗区坂雪岗大道与石背路交叉口东100米金洲嘉丽园,3,0,53,3
12203,深圳春晖苑充电站,113.96918989144844,22.695933180424788,广东省深圳市宝安区广东省深圳市宝安区横当岭一路,4,0,52,4
32152,理想时代大厦,114.05629968523948,22.57345197240812,福田区林安街与林康路交叉口西北50米理想时代大厦,3,0,52,3
25396,前海充电站,113.90520296439364,22.551106722680103,南头街道关口二路嘉进隆汽车城B区15场地,32,0,51,32
12012,中国科技开发院,113.94371697974668,22.544304882597764,深圳市南山区高新南一道9南门,3,0,51,3
11020,深圳崇文花园充电站,113.98602975445245,22.59163469238549,广东省深圳市南山区留仙大道1998号崇文花园,51,4,51,55
31850,万科红四期,114.12377455962104,22.601501629024536,龙岗区锦龙路万科红四期,7,0,50,7
31924,崇文花园三期,113.98644825734314,22.59422076214113,南山区岭仔路崇文花园3栋崇文花园三期,1,0,50,1
32160,第五园六期,114.06588350126532,22.616396530265835,龙岗区梅观高速与布龙公路交汇处坂田街道雅园路第五园六期,5,0,50,5
38680,深圳宝安西乡西湾智园工业区,113.83632488420712,22.609688541844925,深圳市宝安区西乡街道航空路西湾智园工业区宿舍楼内侧停车场,7,2,50,9
12001,有色大厦,114.02175685089723,22.538114506041275,福田区深南大道6013号中国有色大厦负二层停车场,12,0,50,12
12039,科陆大厦充电站,113.93680057672056,22.56441881089395,科技园北区科陆大厦A座,2,13,50,15
32143,泽润华庭,114.10506082399117,22.596788684271186,龙岗区宝丽路55号泽润华庭,3,0,50,3
31985,松坪村三期东区,113.95186581365856,22.56244520047155,南山区松坪街12号松坪村三期东区,12,0,49,12
25400,航天科技充电站,113.94923154538058,22.54011264659047,科技园科技南十路航天科技创新研究院内（直流60KW 120A，交流21KW 65A）,15,0,49,15
33010,鸿翔花园,114.10056140588615,22.55683389115111,罗湖区松园路68号鸿翔花园,6,0,49,6
43780,高发科技园熊猫新能源三期,113.81774121185552,22.673024602381037,深圳市南山区北环大道高发科技园3栋,0,2,48,2
32138,聚豪国际,114.03060345941736,22.6598542308283,龙华新区建设路与东环二路交汇处聚豪国际,1,0,48,1
31343,可乐园,113.99440821304069,22.66693555676994,龙华区华达路与布龙路交叉口东北150米可乐园,5,0,47,5
4539,光明群体中心,113.90076292361356,22.777964618744075,广东省深圳市光明新区体育中心站台旁,0,23,47,23
35149,麒麟花园一期,113.9241361200425,22.548526501149095,南山区泉园路63号麒麟花园一期,3,0,47,3
35472,中海锦城,114.00998132591464,22.64006573994434,龙华区腾龙路与简上路交汇处中海锦城,6,0,47,6
35480,金田花园,113.91612004942654,22.525348982888417,南山区海德二道468号金田花园,2,0,46,2
37724,龙岗鹏达花园1期9栋充电站,114.263097373021,22.71941211533022,广东省深圳市龙岗区龙岗街道鹏达花园,20,0,45,20
8232,濠江社区公园充电站,113.89926223879448,22.562502239023125,广东省深圳市宝安区宝民一路28-1号,0,20,44,20
33136,荔景御园住宅区,114.1269295149986,22.59393537917778,广东省深圳市龙岗区布吉街道翔鸽路37号,6,0,44,6
31824,安柏丽晶,114.03899565601408,22.542878153802565,福田区深南大道6012号安柏丽晶,3,0,44,3
12455,凯达尔大厦,113.94065699923844,22.5871687582741,西丽镇同沙路168号,27,0,44,27
12028,宝通大厦,113.88622254763504,22.57294753133312,宝安区宝民一路215号,3,0,43,3
926,特斯拉充电站（丽湾酒店）,114.2761952747321,22.742541958418947,广东省深圳市龙岗区龙城街道新生社区新生路一号,2,0,43,2
31972,荔香源,113.92117762177811,22.53916526558172,南山区南头街32号荔香源,1,0,43,1
24611,深圳软件园一期②充电站（交流）,113.93468438390993,22.54747522559689,南山区粤海街道高新中三道2号西门软件园一期（1栋旁）,42,0,43,42
4545,新安公园站,113.90635054750196,22.56525321895868,广东省深圳市宝安区新安公园公交站台旁,0,32,43,32
28081,龙珠花园C区,114.12189869968395,22.605684856356763,广东省深圳市龙岗区布吉街道布吉镇南门墩吉昌巷1号,3,0,42,3
32060,嘉麟豪庭,114.06152788242429,22.54163548197653,福田区深南大道2001号嘉麟豪庭,3,0,42,3
17828,深圳中科纳能大厦充电站,113.93626966047437,22.5294949299012,广东省深圳市南山区学府路科园路中科纳能大厦,6,0,42,6
32029,融湖世纪一期,114.11400051753031,22.696059479734025,龙岗区深圳市龙岗区水门路融湖世纪一期,12,0,42,12
8343,深圳天发大厦充电站,114.02695128476012,22.533470177593344,广东省深圳市福田区泰然十路沙头街道天发大厦,20,0,41,20
12469,新闻大厦充电站,114.09716062315869,22.543779510619466,华强北街道红宝路159号新闻大厦,25,0,41,25
32028,宝能太古城南区,113.93416962412464,22.501510348550887,南山区中心路2199号宝能太古城南区,1,0,40,1
32025,徽王府,114.22920441417445,22.737085197482028,龙岗区龙岗龙平西路与爱心路交汇处（龙岗人民医院旁）徽王府,3,0,40,3
13765,深圳鸿达兴充电站,113.82061745339256,22.730865344984625,广东省深圳市宝安区新沙路274-2,12,0,39,12
32111,嘉御豪园一号楼,114.052854690891,22.637251430673796,龙岗区吉华路与大发路交叉口东200米嘉御豪园一号楼,8,0,39,8
33204,南天二花园,114.087872823278,22.55400665705956,广东省深圳市福田区园岭街道百花二路39号,3,0,39,3
32175,新亚洲广场新景苑,114.1915127607134,22.64677066306945,龙岗区横岗街道新亚洲广场新景苑,1,0,38,1
42425,青禾万众城充电站直流,114.03482545792392,22.63252010543472,深圳市万众城家私城,0,8,38,8
35452,金地梅陇镇一期,114.0260348423932,22.63493289906182,龙华区龙华镇梅龙大道与布龙公路交汇处金地梅陇镇一期,3,0,38,3
32021,宝能华府,113.9415963135846,22.58467803547735,南山区留仙大道与石鼓路交叉口西北200米宝能华府,2,0,38,2
32161,第五园八期,114.06384229828606,22.61431136262622,广东省深圳市龙岗区坂田街道雅园路9-110,6,0,38,6
31919,招商兰溪谷二期,113.90837261860588,22.49283813244849,南山区沿山路6号招商兰溪谷二期,4,0,38,4
32078,富通好旺角二期,113.88484656076636,22.561315422398906,宝安区宝安区富通好旺角二期,1,0,37,1
33225,广博星海华庭,113.93137873495913,22.497447012327413,广东省深圳市南山区蛇口街道工业七路62,2,0,37,2
12463,中国科技开发院,113.94843647869966,22.5412531281695,粤海街道思湘坊中国科技开发院中科研发园,30,0,37,30
18307,深圳汇聚创新园充电站,113.92295911868986,22.585106519566068,广东省深圳市宝安区留仙大道2号,13,0,37,13
32203,首地容御花园,113.96901788383016,22.553898219889938,南山区华侨城香山西街18号(香山西街中央教育研究所附属学校北侧)首地·容御花园首地容御花园,4,0,37,4
21188,深圳福祥停车场充电站,113.80869789456229,22.671064591311563,广东省深圳市宝安区福永综合楼停车场,13,0,37,13
33027,诗宁大厦,114.2300415695686,22.55377032093644,盐田区海涛路59号诗宁大厦,3,0,36,3
32067,十二橡树庄园一期停车场,114.05973799274967,22.62801882233328,龙岗区深圳市龙岗区布龙路南侧十二橡树庄园一期停车场,3,0,35,3
35154,育德佳园二期,113.92783508936454,22.513451060275116,南山区后海大道2248号育德佳园二期,3,0,35,3
32991,荔山工业园,113.89013554894332,22.49552154595485,南山区沿山路63号荔山工业园,4,0,35,4
24652,深圳山海阳光园充电站,114.21775022071664,22.55917097829196,深圳市盐田区园林路与盘山公路交汇处北侧山海阳光园停车场,8,0,35,8
12809,罗湖水贝珠宝充电站,114.12234628830392,22.57031728712221,广东省深圳市贝丽北路2号水贝珠宝停车场,0,1,34,1
33203,阳光带海滨城一期,113.94938914737553,22.52892914544496,广东省深圳市南山区粤海街道高新南环路18号,3,0,34,3
35414,香蜜原著,114.01366737285514,22.559140858061006,福田区北环大道香蜜原著,3,0,34,3
24637,智慧广场充电站,113.9768669616631,22.552695434495146,南山区侨香路4068号智慧广场停车场地下二层,26,0,34,26
32257,御景台,113.90726820773814,22.56280590402977,宝安区前进一路53号御景台,2,0,34,2
32008,领航里程花园东区,113.85261858221943,22.613336517886594,宝安区广深公路辅路西200米领航里程花园东区,12,0,34,12
28073,华联城市全景花园,113.9052762787174,22.575988493828927,广东省深圳市宝安区新安街道创业二路248号,90,0,34,90
32137,富通天骏花园,114.0170838081632,22.652890287535865,龙华新区龙华路176号附近富通天骏花园,3,0,34,3
17264,深圳非凡空间阁充电站,114.24656729411724,22.733072185795944,广东省深圳市龙岗区龙岗中心城龙城中路99号,14,0,33,14
35442,华泰4S店,113.99853816702854,22.663273642933845,龙华区创艺路与龙观西路交叉口北150米华泰4S店,4,0,33,4
12007,青少年活动中心,114.09257534069366,22.55408153834059,深圳市福田区红荔路1001号,4,0,33,4
12445,笔架山公园南门充电站,114.07189336325868,22.55871066261546,笋岗西路(笔架山公园南门旁)；深南大道向西行进入皇岗路向南行驶，进入笋岗西路约100米左转进入。,0,0,33,0
18681,深圳万科公园里充电站,114.15306483346784,22.608677679715147,广东省深圳市龙岗区荔园路19号,24,0,33,24
8243,民生深圳湾支行充电站,113.93458447379729,22.494212556018446,广东省深圳市南山区后海滨路绿海湾花园24商铺民生银行,0,3,33,3
32094,中铁诺德公馆一期,114.071844110461,22.62387423453637,广东省深圳市龙岗区坂田街道新河A巷3号,15,0,32,15
33050,华富北屋村,114.07760920150275,22.560608387718823,福田区梅岗路1号华富北屋村,3,0,32,3
35470,锦绣江南四期10栋,114.0271018931539,22.64126688616713,龙华区龙华新区民治锦绣江南四期(梅龙大道东)锦绣江南四期10栋,1,0,32,1
32057,美丽花园,114.01632552955898,22.65602736232968,龙华新区龙华新区龙华街道人民路与宝华路交汇处美丽花园,3,0,32,3
32031,深大书香文苑,114.27097649652777,22.591178841306387,广东省深圳市盐田区盐田街道北山道100号,2,0,32,2
31877,汇龙花园,114.05818779299616,22.576681793138995,福田区香梅路1036号汇龙花园,3,0,31,3
32012,聚龙华府,114.02982496942182,22.663176746886126,龙华新区和平路109号附近聚龙华府,4,0,31,4
33001,笋岗工艺城,114.1027176267804,22.56245230663233,罗湖区桃园路208号附近笋岗工艺城,3,0,31,3
