name,longitude,latitude,address,isConnected,dcNum,acNum
南山荔香公园充电站,104.130927,35.774267,深圳南山荔香公园,False,0,24
坪地汽车站充电站,114.322093,22.781008,广东省深圳市龙岗区富坪路20,False,0,58
坪地充电站,114.31534099999999,22.775516,深圳市龙岗区坪地街道富坪中路17号,True,10,0
坪地汽车站充电站,114.31534099999999,22.775516,深圳市龙岗区坪地街道富坪中路17号,True,21,0
龙岗坪地供电分局充电站,114.30886000000001,22.773179000000003,深圳市龙岗区坪地供电分局,True,8,0
坪地启创/慢充,114.300278,22.763439,广东省深圳市龙岗区深惠路坪地段40,False,0,2
光明西田网格中心停车场充电站,113.90141200000001,22.79948,深圳市光明新区西田村网格中心停车场,True,12,0
光明西田村民委员会停车场充电站,113.900594,22.798961,深圳市光明新区西田村西田村委停车场,True,10,0
坪地启创充电站,114.293755,22.757753,深圳市龙岗区龙岗区龙岗大道（坪地段）1034号,True,10,0
龙岗坪地坪西社区公园充电站,114.27231299999998,22.75936,深圳市龙岗区坪地坪西社区公园,False,0,17
光明新区西田村金三角停车场充电站,113.953649,22.78651,深圳市光明新区西田金三角停车场,True,6,0
光明中山大学附属第七医院停车场充电站,113.953649,22.78651,深圳市光明新区光侨路与圳美大道交汇处中山大学第七附属医院内,False,0,144
万马爱充坪山石田路站,114.36164,22.7485,深圳市坪山区坑梓街道石田路32号,True,44,4
坪山生物医药创新产业园一期充电站,114.40118500000001,22.739658,深圳市坪山区锦绣西路生物医药产业园,True,21,0
坪山生物医药创新产业园充电站,114.40118500000001,22.739658,深圳市坪山区锦绣西路生物医药产业园,True,23,0
坪山生物医药创新产业园二期充电站,114.40118500000001,22.739658,深圳市坪山区锦绣西路生物医药产业园,True,42,0
坪山坑梓基地充电站,114.359454,22.740387,深圳市坪山区坑梓新发街32号（原坑梓供电所）,True,6,0
龙西充电站,114.252277,22.748995999999998,广东省深圳市龙岗区对面岭东路11号,False,0,36
光明新区公明振明路122号天虹商场（公明）停车场,113.89296599999999,22.782076999999997,深圳市光明新区公明振明路122号天虹商场（公明）停车场,True,19,0
公明天虹充电站,113.893204,22.781855,深圳市光明区光明区公明街道振明路天虹商场(公明店),True,19,0
宝能科技园北区地上停车场充电站,114.06539699999999,22.674232999999997,深圳市龙华新区宝能科技园北区地上停车场,True,24,0
龙华宝能科技园北区充电站,114.06388899999999,22.674198,深圳市龙华清祥路宝能北区科技园地下室,False,0,150
永湖充电站,114.233052,22.65865,深圳市龙岗区横坪公路114号,True,4,0
清湖公交充电站-专用,114.033051,22.677063,深圳市龙华区清华路总站,True,28,0
凤凰雁盟充电站,113.842448,22.695567,深圳市宝安区岑下路与集资路交叉口南150米,True,42,0
宝能科技园南区地上停车场充电站,114.06313999999999,22.673506,深圳市龙华新区宝能科技园南区地上停车场,True,60,0
同胜充电站,113.98390500000001,22.680757999999997,深圳市龙华区大浪华辉路3号同胜科技大厦旁,True,11,0
石岩官田停车场充电站,113.93986699999999,22.683895,深圳市宝安区田心大道与田心路交叉口东150米,True,20,0
大浪充电站,113.99839399999999,22.677512,深圳市龙华区大浪华昌路239号,True,7,0
石岩汽车站西广场充电站,113.92858999999999,22.683968,深圳市宝安区宝石西路石岩汽车站西广场,True,16,0
石岩汽车站东广场充电站,113.928598,22.683936,深圳市宝安区宝石西路石岩汽车站东广场,True,22,0
宝安凤凰西区充电站,113.838944,22.692693,深圳市宝安区福永街道办凤凰西区305号,True,11,0
石岩丽枫充电站,113.92813899999999,22.683507000000002,深圳市宝安区宝石西路39号丽枫酒店停车场内,True,16,0
万马爱充清湖社会站,114.040575,22.671733,深圳市龙华区和平路1号（富多肯工业园内）,True,8,0
横岗189充电站,114.21116299999998,22.655835999999997,深圳市龙岗区横岗街道189工业区广达路,True,16,0
宝安福安广场充电站,113.82127,22.69351,广东省深圳市宝安区福永街道大洋路边福安广场内,False,0,4
清湖充电站,114.0418,22.671101,深圳市龙华区新业一路4号,True,40,0
横岗信义充电站,114.21765,22.65439,广东省深圳市龙岗区保康路66号,False,0,19
宝安立新湖公共停车场充电站,113.875386,22.686071,深圳市宝安区福海街道桥头社区稔山二路8号，立新湖水库旁,True,12,0
宝安福海街道大洋社区停车场充电站,113.81659599999999,22.691954,广东省深圳市宝安区福海街道大洋社区停车场,True,12,0
坂田佳兆业充电站,114.084402,22.665178,广东省深圳市龙岗区宝吉路,False,0,87
石岩文体中心充电站,113.95089399999999,22.677653,广东省深圳市宝安区育才路,False,0,25
宝安福安公司第二工业城充电站,113.815527,22.69102,广东省深圳市宝安区福永街道福安第二工业区停车场,True,24,0
深圳宝安福永锐明工业园充电站,113.78771,22.69303,深圳市宝安区福永福海街道和秀西路44号锐明工业园,True,6,0
深圳龙华区龙观路充电站,114.028159,22.667844,广东省深圳市龙华区龙观东路249号（鑫富实业旁）,True,40,0
信伟大厦充电站,114.023251,22.667503,深圳市龙华区龙华街道建辉路121号信伟大厦负一层,True,5,0
坂田中电绿源充电站-专用,114.06713,22.662784,深圳市龙岗区居里夫人大道与坂李大道交叉路口西200米,True,34,0
横岗振业城充电站,114.18676,22.651582,广东省深圳市龙岗区埔园路,False,0,41
横岗信义充电站,114.21125,22.649281,深圳市龙岗区横岗街道信义御城豪园小区,True,28,0
深圳龙华金源大厦充电站,114.02248300000001,22.666759,深圳市龙华区龙华街道昌永路12号金源大厦,True,6,0
银湖充电站,114.020653,22.666099,深圳市罗湖区北环大道1022号,True,19,0
龙岗横岗供电分局充电站,114.211583,22.648269,深圳市龙岗区横岗供电分局,True,6,0
雪象充电站,114.082075,22.659983,广东省深圳市龙岗区宝吉路,False,0,54
上李朗充电站-专用,114.125796,22.655595,深圳市龙岗区布吉平吉大道洲腾工业园,True,34,0
雪象直流快充站,114.08200000000001,22.659423,广东省深圳市龙岗区雪岗南路135号,False,0,16
天安云谷充电站,114.06872800000001,22.660577,深圳市龙岗区坂云路与居里夫人大道交叉口东北150米天安云谷3栋C座1楼,True,2,0
石岩文体中心充电站,113.944096,22.672152,深圳市宝安区石岩街道育才路石岩文体艺术中心,True,25,0
大润发充电站,114.038206,22.662873,广东省深圳市龙华区和平路大润发,False,0,52
坂田佳兆业充电站,114.076462,22.658565,深圳市龙岗区坂田6号路东侧佳兆业中央广场三期公交首末站,True,50,0
凤凰山公园充电站,113.84992441799999,22.6802661094,深圳市宝安区福永街道凤凰村凤凰山森林公园停车场内,True,10,0
万马爱充大康路328工业区站,114.221078,22.644414,深圳市龙岗区横岗街道328工业园内,True,42,3
长丰酒店充电站,113.92125700000001,22.672396,深圳市宝安区石岩街道长丰花园酒店地面停车场,True,9,0
万马爱充金龙华广场站,114.01716,22.662229999999997,深圳市龙华区龙观西路3号,True,10,7
世峰大厦充电站,113.806929,22.682726000000002,深圳市宝安区宝安大道6267号世峰大厦,True,14,0
六约充电站,114.180434,22.646119,深圳市龙岗区横岗街道埔园路,True,40,0
横岗振业城充电站,114.180438,22.645770000000002,深圳市龙岗区横岗街道埔园路,True,41,0
恒胜亿充电站,113.895436,22.672567,深圳市宝安区料坑大道与洲石公路交叉150米恒胜亿物流园内,True,12,0
平湖海吉星充电站-专用,114.16405900000001,22.646097,深圳市龙岗区平湖海吉星农产品物流园丹农路1号6栋C区2楼平层,True,0,0
坂田雪象充电站,114.07561299999999,22.654157,深圳市龙岗区坂田街道坂田6号路北侧,True,68,0
家顺康食品充电站,114.151338,22.646628,深圳市龙岗区平湖街道横东岭路,True,2,0
横岗宝丽酒店充电站,114.19544099999999,22.640705,深圳市龙岗区横岗街道龙岗大道宝丽酒店,True,20,0
龙华文艺中心充电站,114.04100600000001,22.654575,深圳市龙华区梅龙大道与东环二路交汇处龙华文化艺术中心深圳望野博物馆附近,True,34,0
大康社区充电站,114.222057,22.637837,深圳市龙岗区沙荷路与宝华路交汇处东北侧横岗大康辛塘大黄工业区内,True,10,0
立新湖充电站,113.813553,22.676299,深圳市宝安区福洲大道与立新路交叉口东100米,True,30,0
望牛亭公园充电站,113.81626999999999,22.675923,深圳市宝安区福永街道福洲大道望牛亭公园,True,10,0
盐田东部华侨城茵特拉根酒店充电站,114.276131,22.631079,深圳市盐田区大梅沙东部华侨城深圳东部华侨城茵特拉根酒店-地下停车场内,True,5,0
天格科技园充电站,113.92925600000001,22.663365,深圳市宝安区国泰路与罗租工业大道交叉口南100米,True,6,0
盐田东部华侨城茶溪谷充电站,114.28015,22.63062,深圳市盐田区东部华侨城黑森林酒店附近东部华侨城茶溪谷-停车场,True,10,0
中阳商务大厦充电站,113.807115,22.675935,深圳市宝安区福永街道福洲大道24号中阳商务大厦,True,1,0
盐田东部华侨城黑森林酒店充电站,114.278396,22.63055,深圳市盐田区大梅沙东部华侨城内&nbsp;东部华侨城-国际宴会厅（侧面）,True,8,0
横岗安良充电站,114.225918,22.631519,广东省深圳市龙岗区辛田路,False,0,78
江灏科技园充电站,114.07868300000001,22.644141,深圳市龙岗区吉华路430号江灏科技园停车场入口100米,True,4,0
舒适捷江灏充电站,114.078657,22.644097,深圳市龙岗区吉华路430号江灏科技园停车场入口100米,False,8,0
石岩广聚泰充电站,113.89089799999999,22.66235,深圳市宝安区石岩街道民生一路22号广聚泰工业园内,True,36,0
南湾充电站,114.15717,22.63656,深圳市龙岗区丹平快速路入口与S28水官高速入口交叉口东南150米,True,60,0
宝安福永供电分局充电站,113.82561399999999,22.666221,深圳市宝安区福永街道办翠岗西路和政丰南路交界处,False,0,6
龙华营业厅充电站,114.02173,22.645878,龙华区景龙建设路深圳供电局龙华营业厅,True,8,0
大亚湾LBA停车场充电站,114.553903,22.599644,深圳市大鹏新区大亚湾核电基地LBA停车场,True,30,0
翠岗公园充电站,113.8208119392,22.6647635856,深圳市宝安区怀德南路1321号,True,10,0
福永红树湾家具城充电站,113.829454,22.663679000000002,深圳市宝安区福永街道107国道怀德路段富邦红树湾国际家居城,True,0,0
大亚湾办公大楼停车场充电站,114.542654,22.599089000000003,深圳市大鹏新区大亚湾核电基地01办公楼B座停车场,True,5,0
盛德龙充电站,114.141501,22.632142,深圳市龙岗区S28水官高速南150米,True,102,0
安良充电站,114.21953,22.625021,深圳市龙岗区园山街道安良园区沿河路1号共速达物流园内,True,52,0
万马爱充牛栏前商业街站,114.03993,22.639789999999998,广东省深圳市龙华区工业东路83号,True,16,0
福永海鲜市场充电站,113.809816,22.662914999999998,深圳市宝安区宝安大道福永海鲜市场,True,12,0
比亚迪上水径充电站,114.10441999999999,22.633412,广东省深圳市龙岗区上水径申龙工业区,True,127,0
华雅工业园充电站,114.054077,22.637812,深圳市龙华区龙华街道华雅工业园,True,6,0
华雅工业园充电站,114.05306599999999,22.637128,深圳市龙华区龙华街道华雅工业园,True,4,0
大亚湾枫杨轩停车场充电站,114.53216699999999,22.594365,深圳市大鹏新区大亚湾核电基地枫杨轩停车场,True,6,0
大亚湾AE楼停车场充电站,114.531319,22.593552,深圳市大鹏新区大亚湾核电基地大亚湾AE楼停车场,True,5,0
龙壁工业区6栋充电站,114.054129,22.634241,深圳市龙岗区坂田街道龙壁工业区6栋1层,False,0,3
大亚湾滨海花园停车场充电站,114.534425,22.592983,深圳市大鹏新区大亚湾核电基地滨海花园停车场,True,23,0
欢乐海湾充电站,114.51944499999999,22.593485,深圳市龙岗区鹏飞路278号,True,14,0
大亚湾专家村充电站,114.532403,22.591665,深圳市大鹏新区大亚湾核电基地专家村停车场,True,6,0
中升腾泰4S充电站,114.05216100000001,22.631725,深圳市龙岗区中裕冠大道中升腾泰4S地面停车场,True,2,0
沙湾充电站,114.16885,22.618774,广东省深圳市龙岗区沙平北路66号,False,0,19
创维平面显示科技充电站,113.920629,22.64206,深圳市宝安区创业大道创维科技地面停车场,True,1,0
沙湾吉夏充电站,114.16281599999999,22.618739,深圳市龙岗区南湾街道杰克大厦,True,64,0
盐田东部华侨城瀑布酒店,114.304001,22.606274,深圳市盐田区大梅沙东部华侨城大侠谷东部华侨城瀑布酒店-地下停车场,False,0,6
东部华侨城充电站,114.30448100000001,22.603673,深圳市盐田区艺海东路东部华侨城大侠谷停车场B19区,True,16,0
互联E时代充电站-专用,114.083481,22.623306,深圳市龙岗区中兴路东150米坂田互联E时代总站,True,30,0
伟泰路充电站,113.933314,22.637889,深圳市宝安区石岩街道人石社区伟泰路23号,True,36,0
信挚工业一期充电站,114.081034,22.623074,深圳市龙岗区坂田街道中兴路信挚科技园,True,6,0
深圳机场充电站,113.81989899999999,22.649036,深圳市宝安区福永,True,10,0
宝安机场平安居充电站,113.818154,22.6489,深圳市宝安区机场平安居,False,0,24
宝安凌霄阁充电站,113.828705,22.647071,深圳市宝安区机场路凌霄阁,False,0,10
宝安企岗山花园充电站,113.828705,22.647071,深圳市宝安区机场路企岗山花园,False,0,18
盐田梅沙幼儿园充电站,114.30400300000001,22.600945,深圳市盐田区望翠路8号深圳市盐田区梅沙幼儿园（地下停车场）,False,0,2
沙湾充电站,114.16233700000001,22.612996,深圳市龙岗区南湾街道沙平北路66号沙湾汽车站,True,30,0
布吉街道办站/慢充,114.136222,22.615261,广东省深圳市龙岗区政清路,False,0,14
宝安怡安居充电站,113.829867,22.64499,深圳市宝安区怡安居,False,0,30
宝安机场老机场充电站,113.829867,22.64499,深圳市宝安区福永机场航站四路3005号,False,24,84
大鹏较场尾停车场充电站,114.49631000000001,22.584491,广东省深圳市大鹏新区大鹏街道较场尾停车场,True,41,0
丽康公交充电站-专用,113.97253799999999,22.630443,深圳市南山区西丽街道丽康路总站,True,40,0
布吉街道办充电站,114.134321,22.614817000000002,广东省深圳市龙岗区广场路28,False,0,53
宝安机场信息大厦充电站,113.827004,22.644385,深圳市宝安区机场道1011号深圳市宝安区福永机场信息大厦停车场负二楼,False,0,37
万科第五园综合充电站,114.071749,22.619867000000003,深圳市龙岗区坂雪岗大道与永香路交叉口南50米,True,42,0
宝安机场航油大厦充电站,113.825259,22.643626,深圳市宝安区机场航油大厦,True,2,0
龙岗南湾街道南岭村停车场充电站,114.152185,22.61139,深圳市龙岗区南湾街道南岭村停车场旁,False,0,35
宝安机场物业一办充电站,113.82453999999998,22.642418,深圳市宝安区机场物业一办,False,0,10
宝安机场急救中心充电站,113.824701,22.641981,深圳市宝安区机场急救中心,False,0,9
万马爱充沙湾兴华路站,114.165296,22.607782999999998,深圳市南湾街道沙湾社区兴华路11号,True,24,4
青青家园充电站,114.10095,22.613258,深圳市龙岗区布吉街道华龙路51号青青家园北区,True,48,0
布吉文博宫充电站,114.11216499999999,22.611789,广东省深圳市龙岗区八约二街38号,False,0,100
永联科技总部充电站,113.938994,22.628209,深圳市南山区松柏路白芒关百旺信工业园二区七栋,True,21,0
翠枫豪园公交充电站-专用,114.101479,22.612263000000002,深圳市龙岗区华龙路翠枫豪园总站,True,18,0
公园里充电站,114.15602700000001,22.607207,深圳市龙岗区樟富北路8号,True,2,0
八约一街,114.101951,22.6111,深圳市龙岗区布吉街道华龙路八约一街8号观光美食广场,True,17,0
布吉街道办充电站,114.127854,22.608601999999998,深圳市龙岗区政清路1号,True,53,0
宝安快件中心充电站,113.822796,22.638628,深圳市宝安区快件中心,False,0,10
翠枫充电站,114.104019,22.609892000000002,深圳市龙岗区布吉街道石龙坑新村停车场,True,52,0
彩悦大厦充电站,114.032959,22.615435,深圳市龙华区留仙大道24号彩悦大厦地面停车场,True,2,0
龙岗布吉供电分局充电站,114.12700600000001,22.605913,深圳市龙岗区布吉供电分局,True,7,0
1983创意小镇充电站,114.14825,22.60339,深圳市龙岗区南新路13-16号1983创意小镇,True,9,0
盐田梧桐变电站充电站,114.238588,22.595036999999998,深圳市盐田区永安南一街2号盐田梧桐变电站,True,2,0
坂田星河雅宝充电站,114.066854,22.610617,广东省深圳市龙岗区雅南路,False,0,49
深圳市龙岗区南岭1983创意小镇,114.14920500000001,22.602531,深圳市龙岗区南湾街道南新路1983创意小镇,True,6,0
盐田北山工业区充电站,114.261553,22.591969,深圳市盐田区盐田街道盐田北山工业区,True,14,0
文博宫充电站,114.105896,22.605377,深圳市龙岗区布吉西环路文博宫停车场（立体停车场）,True,100,0
龙岗南湾街道南岭村会堂充电站,114.14533300000001,22.601069,深圳市龙岗区南湾街道南岭村会堂,False,0,20
深航总部大厦充电站,113.83046000000002,22.631355,深圳市宝安区机场南干道附近深航总部大厦,True,9,0
龙岗南湾街道龙山工业区充电站,114.13854199999999,22.600509,深圳市龙岗区南湾街道龙山工业区旁,False,0,55
龙山充电站,114.13788899999999,22.599757,深圳市龙岗区布吉南岭龙山工业区6号,True,7,0
盐港充电站,114.251709,22.589477,深圳市盐田区第二人民医院,True,70,0
宝安物流大厦充电站,113.833688,22.628379000000002,深圳市宝安区机场物流大厦,False,0,30
宝安机场保税大厦充电站,113.83503700000001,22.628217000000003,深圳市宝安区机场保税大厦地面停车场,False,0,15
深业U中心充电站,113.86426000000002,22.62516,深圳市宝安区鹤洲洲石路北二路深业U中心,True,10,0
坂田星河雅宝充电站,114.06,22.604216,深圳市龙岗区坂田街道星河雅宝1号地块公交首末站,True,46,0
西部硅谷充电站,113.837748,22.625747,深圳市宝安区西乡街道宝安大道深圳西部硅谷,True,14,0
福永西部硅谷充电站,113.837748,22.625747,深圳市宝安区西乡街道宝安大道深圳西部硅谷,True,14,0
七星湾充电站,114.540578,22.56258,深圳市龙岗区海碓路西100米,True,4,0
宝安机场T3航站楼充电站,113.812569,22.626195000000003,深圳市宝安区机场T3航站楼,False,0,21
宝安机场充电站,113.81586503780001,22.624960968099998,深圳市宝安区领航一路宝安机场P1停车场B区外侧,True,56,0
龙华丹晟恒丰停车场慢充充电站,114.037977,22.602346,广东省深圳市龙华区民塘路白石龙一区126号,False,0,80
麒麟山庄疗养院充电站,113.9714219799,22.608785494899998,深圳市南山区沁园路5689号麒麟山庄,True,3,0
盐田半山半海充电站-专用,114.24042,22.583476,深圳市盐田区中青路与中青一路交汇处,True,28,0
宝丽充电站,114.10876999999999,22.595212,深圳市龙岗区布吉宝丽路108号（108创业园内）,True,7,0
宝安老国际一期充电站,113.81408200000001,22.623598,深圳市宝安区老国际一期,False,0,16
西湖新村站,114.135104,22.591017,深圳市龙岗区布吉街道罗岗社区罗岗路1号西湖新村,True,2,0
盐田深圳外国语学校充电站,114.247033,22.579999,深圳市盐田区盐田路1号深圳外国语学校,True,10,0
路源通充电站,113.93653,22.608102,深圳市南山区西丽街道牛成村白石岗耕作口牛成路0001号,True,15,0
荔枝世界充电站-专用,113.93866799999999,22.607431,深圳市南山区沙河西路5080号,True,40,0
宝安机场承远加油站充电站,113.81056699999999,22.620442999999998,深圳市宝安区机场承远加油站地面停车场,False,0,8
宝安机场承远大厦充电站,113.810635,22.620252,深圳市宝安区机场承远大厦,True,6,0
比亚迪民乐的士接驳充电站,114.047899,22.596094,深圳市龙华新区民乐地铁站旁边,True,58,0
南方科技大学充电站,114.00262,22.60016,深圳市南山区学苑大道1088号教师公寓2栋地面停车场,True,1,0
罗湖淘金山南广场充电站,114.14335700000001,22.585673,深圳市罗湖区东湖淘金山湖景花园一期车库大门,False,0,12
罗湖淘金山湖景花园充电站,114.14335700000001,22.585673,深圳市罗湖区东湖淘金山湖景花园一期车库内,False,0,120
罗湖布心充电站-专用,114.135772,22.585462,深圳市罗湖区布心山庄东区文德路88号,True,30,0
仙湖植物园充电站,114.173745,22.581823,深圳市罗湖区莲塘仙湖路160号深圳仙湖植物园内停车库6楼6B,True,3,0
南山南科大充电站,113.99946299999999,22.597599,广东省深圳市南山区学苑大道南科大4号门,False,8,0
翠岭华庭站,114.046783,22.592948,深圳市龙华区新区大道3号翠岭华庭,True,14,0
西丽花卉中心充电站,113.937109,22.60279,深圳市南山区西丽街道沙河西路4821号深港花卉中心,True,93,0
仙湖植物园充电站,114.17876100000001,22.579701999999997,深圳市罗湖区莲塘仙湖路160号深圳仙湖植物园内,True,14,0
民乐P+R充电站扩建工程,114.05137430580359,22.59130759474411,深圳市龙华区民乐地铁站东南社会停车场,True,172,0
南山现代变电站充电站,114.017683,22.593998000000003,深圳市500KV现代变电站,True,2,0
罗湖育才花园小区充电站,114.12168999999999,22.583642,深圳市罗湖区东晓街道办事处金稻田路2047号育才花园小区地面停车场,True,6,0
宝安老国内货站充电站,113.822278,22.612992000000002,深圳市宝安区老国内货站停车场,False,0,20
宝安机场出港货站充电站,113.82103400000001,22.613049,深圳市宝安区机场出港货站地面停车场,False,0,40
宝安机场进港货站充电站,113.82103400000001,22.613049,深圳市宝安区机场进港货站,False,0,20
罗湖金穗居小区充电站,114.120631,22.583357,深圳市罗湖区东晓街道办事处金稻田路1147号金穗居小区地面停车场,True,6,0
同安物流园充电站,113.84631,22.610020000000002,深圳市宝安区西乡街道三围航空路30号同安物流园地面停车场,True,5,0
盐田国际文体中心充电站,114.25474399999999,22.569147,深圳市盐田区进港一路,True,12,0
翠山充电站,114.12299999999999,22.58089,深圳市罗湖区翠山路65号比亚迪华集祥修理厂首层,True,45,0
清水河充电站,114.115053,22.581252,深圳市罗湖区清水河一路22号清水河生活小区15号楼旁,True,41,0
比亚迪动物园充电站,113.96485600000001,22.594692000000002,深圳市南山区西丽动物园正门（停车场入口进去第一个路口左转）,True,92,0
清水河充电站,114.106311,22.579516,深圳市罗湖区清水河红岗路1088-1号附近,True,53,0
万象新天一期充电站,113.848601,22.602985999999998,深圳市宝安区宝安大道与固戍二路交汇处东北侧,True,6,0
东湖宾馆充电站,114.145257,22.573755,深圳市罗湖区沙湾路东湖宾馆,True,38,0
深圳市宝安区新园工业区充电站,113.854946,22.601679999999998,深圳市宝安区西乡街道固戍一路575号第一栋厂房一楼东边,True,3,0
盐田周大福集团总部充电站,114.249642,22.564028,深圳市盐田区协和路&nbsp;周大福集团大厦（地下停车场）,False,0,29
企龙山足球公园充电站,113.88864,22.597381,深圳市宝安区水库路企龙山足球公园,True,18,0
罗湖东乐花园92A景秀楼充电站,114.140216,22.571696,深圳市罗湖区东乐花园92A景秀楼,False,0,9
固戍新天地购物广场充电站,113.846865,22.599677,深圳市宝安区宝安大道4341号新天地购物广场,True,7,0
盐田公安分局充电站,114.24476100000001,22.56148,深圳市盐田区深盐路2078号盐田公安分局（负二层）,False,0,15
罗湖一建宿舍小区充电站,114.113997,22.573201,深圳市罗湖区清水河街道办事处红岗路1008号一建住宅小区地面停车场,True,6,0
南山深圳职业技术学院充电站,113.95058799999998,22.588507999999997,深圳市南山区沙河西路4089号深圳职业技术学院（留仙洞校区、官龙校区）,True,12,0
罗湖华景园充电站,114.176874,22.565256,深圳市罗湖区罗沙路4020号华景园别墅,False,0,21
比亚迪清水河充电站,114.112127,22.570107999999998,深圳市罗湖区清水河力能充电站地下室,False,0,51
盐田海山居停车场充电站,114.23891200000001,22.558509,深圳市盐田区海山路16号海山居停车场,False,0,15
南山博林天瑞充电站,113.972807,22.583146,深圳市南山区留仙大道北西丽博林天瑞,False,0,130
盐田供电局办公区域充电站,114.24073,22.55826,深圳市盐田区沙头角海龙路2号盐田供电局办公区域,True,10,0
裕兴科技园充电站,113.83695300000001,22.596609,深圳市宝安区固戍二路61号附近裕兴科技园旁边地面停车场,True,6,0
大鹏新大集散中心电动汽车充电站,114.508908,22.535860999999997,深圳市大鹏新区南澳街道新大集散中心,True,40,0
深圳市宝安区裕兴科技工业园,113.83708100000001,22.595975,深圳市宝安区西乡街道南昌社区固戍二路第三工业区裕兴科技工业园E栋一楼,True,6,0
万马爱充麦德龙站,114.10891699999999,22.569098,广东省深圳市罗湖区宝安北路4008号,True,22,0
宝安客运中心充电站,113.884681,22.590501999999997,深圳市宝安区西乡大道32号宝安客运中心汽车站,True,102,0
宝安客运中心前广场充电站,113.884681,22.590501999999997,深圳市宝安区西乡大道32号宝安客运中心汽车站,True,18,0
盐田图书馆充电站,114.23879,22.556467,深圳市盐田区深盐路2086号盐田图书馆旁,True,30,0
宝安客运中心公交充电站,113.88368100000001,22.590004,深圳市宝安区西乡大道32号宝安客运中心汽车站,True,16,0
雪仙丽充电站,113.859303,22.785263,广东省深圳市光明区马田街道松罗路58号深圳光明居家服饰创意谷,True,68,0
公明天虹商场充电站,113.89321000000001,22.78114,广东省深圳市光明区公明街道振明路122号天虹商场(公明店)停车场,True,19,3
深圳市公明欧式堡充电站,113.889596,22.781208,深圳欧式堡商业中心地面停车场,False,6,0
宝安洪桥头居委会充电站,113.841393,22.785038,深圳市宝安区燕罗街道洪桥头居委会停车场,True,5,0
公明田园路充电站,113.86393000000001,22.782594,深圳市光明区光明办事处光明新区薯田埔第五工业区,True,12,0
光明薯田埔社区充电站,113.873438,22.780776,深圳市光明新区薯田埔社区停车场,True,5,0
光明马田办事处（二办）停车场充电站,113.899529,22.775928,深圳市光明新区望胜路33号建设大厦,True,12,0
龙西充电站,114.24583100000001,22.742798,深圳市龙岗区龙城街道对面岭东路11号水木华程办公楼,True,34,0
深国际华通源物流中心充电站,114.033584,22.761141000000002,广东省深圳市龙华区观澜街道黎光村西纵一路,True,12,0
宝安集信名城一期充电站,113.849522,22.779423,广东省深圳市宝安区沙井新区松岗集信名城(沙江路北),True,6,0
龙华黎光社区公园充电站,114.029472,22.758657,广东省深圳市龙华区观澜黎光社区公园(黎光公园路北),False,16,0
万马爱充明卓兴工业园站,113.934886,22.767582,深圳市宝安区光明办事处明卓工业园,True,22,0
回龙埔公园充电站,114.243098,22.737349,深圳市龙岗区盐龙大道以南回龙埔公园北侧停车场,True,23,0
光明迳口村委三号光翠北路停车场充电站,113.955157,22.763627,深圳市光明区迳口村委三号光翠北路停车场,False,0,23
龙岗欢城广场充电站,114.26919299999999,22.734064,深圳市龙岗街道龙岗大道龙园路交汇处欢城广场,False,0,20
聚龙山公园充电站,114.39308700000001,22.723426999999997,深圳市坪山区青松西路聚龙山公园停车场,True,34,0
龙田充电站,114.357253,22.726151,深圳市坪山区龙田街道坪山大道99号（盘龙路与坪山大道交汇处）,True,11,0
松岗鑫展鸿充电站,113.81679399999999,22.776982999999998,深圳市宝安区松岗街道松福大道鑫展鸿工业园,True,7,0
光明办事处充电站,113.94736200000001,22.763408,深圳市光明区光明区光翠路北6号,True,12,0
中心城北充电站,114.24317099999999,22.735317000000002,广东省深圳市龙岗区龙平西路129号,False,0,32
罗湖泰宁花园停车场充电站,114.140722,22.564962,深圳市罗湖区爱国路3033号泰宁花园停车场,True,12,0
罗湖祥和花园一期充电站,114.168951,22.562088,广东省深圳市罗湖区聚宝路26号祥和花园一期地下停车场负一层,False,0,10
泥岗充电站,114.097004,22.567835000000002,深圳市罗湖区泥岗村大地苑停车场（泥岗地铁旁）,True,22,0
罗湖供电局停车场充电站,114.12938600000001,22.564418,深圳市罗湖区田贝三路1号罗湖供电局停车场,True,16,0
比亚迪仙台路充电站,114.18096000000001,22.559532,广东省深圳市罗湖区莲塘罗沙公路东方凤雅台对面,True,140,0
比亚迪凯丰路充电站,114.06331999999999,22.56963,广东省深圳市福田区凯丰路的士码头（喜憨儿洗车中心旁）,True,16,0
罗湖区桐景花园充电站,114.17371599999998,22.5593,深圳市罗湖区港莲路18号地下停车场负一层,False,0,28
罗湖城市东座充电站,114.169855,22.559366,深圳市罗湖区莲塘港莲路22号城市东座地下停车场,False,0,8
宝安宝兴花园充电站,113.877726,22.58745,深圳市宝安区西乡宝民二路宝兴花园,True,2,0
南山西丽人民医院充电站,113.94852900000001,22.580212,深圳市南山区西丽人民医院西北角,True,18,0
捷顺大厦充电站,114.06594399999999,22.568032000000002,深圳市福田区梅林路17号,True,8,0
盐田交警大队充电站,114.22912,22.553055999999998,深圳市盐田区田心东路2号盐田区交警大队,True,3,0
大鹏半岛国家地质公园充电站,114.52954799999999,22.5284,深圳市大鹏新区深圳南澳源兴度假村,True,10,0
宝安西乡街道金雅园充电站,113.879088,22.585760999999998,深圳市宝安区西乡街道金雅园内,False,2,4
福田依岚花园充电站,114.09089499999999,22.564775,深圳市福田区上步北路2009号笔架山依岚花园地下停车场负二层,False,0,30
罗湖田心裕田大楼充电站,114.10185600000001,22.563382999999998,深圳市罗湖区宝岗路217号,False,0,10
宝安西湾红树林公园2号地下车库充电站,113.835797,22.58924,深圳市宝安区西湾红树林公园2号地下车库,True,38,0
宝安西湾红树林公园1号地下车库充电站,113.835797,22.58924,深圳市宝安区西湾红树林公园1号地下车库,True,51,0
罗湖国检珠宝大厦充电站,114.127857,22.560457,深圳市罗湖区贝丽南路4号国检珠宝大厦地下停车场负一层,False,0,24
莱莱充电站,113.908606,22.581572,深圳市宝安区大宝路西一巷2号,True,3,0
宝安西乡嘉华花园充电站,113.88888500000002,22.582968,深圳市宝安区流塘路30号,True,6,0
I-GO深圳总部充电站,114.064921,22.565613,深圳市福田区梅林越华路1号人保大厦停车场,True,25,0
旭生西发充电站,113.863548,22.585257000000002,深圳市宝安区西乡街道共和工业路149号西乡共乐工业区B区东北门,True,12,0
大宝路安恒公司充电站,113.911777,22.580185,深圳市宝安区大宝路112号公交客运停车场,True,24,0
罗湖艺展中心充电站,114.106148,22.561294,深圳市罗湖区桃园路121号艺展中心室内停车场4-5F,False,0,24
罗湖龙屋小区充电站,114.12578899999998,22.55912,深圳市罗湖区翠竹街道办事处田贝一路62号龙屋小区地面停车场,True,6,0
莲花山电动汽车充电站,114.06304899999999,22.564772,深圳市福田区梅林片区奥仕达路凯丰社区公园旁,True,50,0
比亚迪长岭村充电站,114.188783,22.552854,广东省深圳市罗湖区长岭村（导航地点：罗沙路往盘山路充电站）,True,30,0
动漫产业基地充电站,114.13975400000001,22.557221,深圳市罗湖区怡景路2008号动漫产业基地,True,4,0
深圳市宝安区汇新安加油站充电站,113.879617,22.582287,深圳市宝安区庄边路汇新安加油站对面,True,6,0
宝安庭威工业园充电站,113.92160200000001,22.577631,深圳市宝安区67区留芳路6号庭威工业园2栋,True,1,0
盐田海涛小学充电站,114.235794,22.548067,深圳市盐田区海景二路1106号海涛小学-东门,True,4,0
罗湖体育馆充电站,114.15165400000001,22.555352,深圳市罗湖区罗沙公路经二路48号罗湖体育馆地下停车场,True,2,0
体育场充电站,114.093288058859,22.5599320675392,深圳市福田区上步北路与笋岗路交界处，体育场东门入口处。,True,11,0
南山深职院充电站,113.93188400000001,22.575426999999998,深圳市南山区深圳职业技术学院,False,2,16
福田运发汽修大楼充电站,114.054429,22.56345,深圳市福田区上梅林梅村路4号运发汽修大楼,True,2,0
宝安宝城计量中心停车场充电站,113.90987,22.577560000000002,深圳市宝安区宝城28区新安三路一巷47号大浪居委会旁,True,16,0
八卦岭站,114.098197,22.558889,深圳市福田区八卦二路526栋后方（天天饰展中心后方）,True,7,0
比亚迪体育休闲公园充电站,114.148432,22.554103,深圳东湖二路体育休闲公园停车场,True,97,0
洪浪北裕安居充电站,113.90616499999999,22.577112,深圳市宝安区上合32区裕安路裕安居停车场内,True,7,0
中兴人才公寓充电站,113.93828148780001,22.5735865432,深圳市南山区打石一路22号,True,3,0
宝安创锦1号停车场充电站,113.911728,22.576102,深圳市宝安创锦1号停车场,False,3,7
华强云产业园充电站,114.047789,22.562336,深圳市福田区梅林街道梅秀路1-1号深圳华强云产业园,True,4,0
彩田北充电站,114.059927,22.560889000000003,深圳市福田区宏威路彩田北地铁站A1出口停车场,True,19,0
罗湖怡泰中心充电站,114.12806599999999,22.553905,深圳市罗湖区文锦中路2090号怡泰中心地下停车场负二层,False,0,12
市二医院,114.08467432404301,22.557837482761897,福田区笋岗路深圳市二医院住院部地下车库负三层,True,10,0
罗湖西湖宾馆充电站,114.10975800000001,22.55404,深圳市罗湖区宝安南路西湖宾馆充电站停车场,True,54,0
天威花园充电站,114.06549,22.557987,深圳市福田区彩田北路6001号天威花园地面停车场,True,4,0
西乡体育中心中心充电站,113.853742,22.577885000000002,深圳市宝安区西乡街道西乡体育中心,True,16,0
梅林运发综合楼充电站,114.030111,22.559594,深圳市福田区梅林街道北环大道7030号运发梅林综合楼,True,28,0
罗湖怡景花园充电站,114.126653,22.550379,深圳市罗湖区怡景花园桂花楼旁停车场,False,0,18
波顿研发大楼充电站,113.939769,22.567586,深圳市南山区创科路与茶光路交叉口东南150米波顿研发大楼负一层,True,5,0
罗湖东方尊峪充电站,114.107753,22.551326,深圳市罗湖区长岭路东方尊峪1、2、6、8栋,False,0,132
宝安49区充电站,113.887739,22.572095,深圳市宝安区新安街道鸿昌花园,True,20,0
罗湖深港豪苑充电站,114.109954,22.550019,深圳市罗湖区C437W437宝安路深港豪苑配电房,False,0,24
深圳罗湖福德花园,114.13345,22.546389,深圳市罗湖区深南东路1110号福德花园,True,2,0
龙珠军苑地面停车场充电站,113.987362,22.560053,深圳市南山区龙苑路9号龙珠军苑小区地上停车场,True,2,0
荔枝公园,114.09825218434901,22.5484855092578,福田区红荔路与同德路交汇处（深圳少儿图书馆左侧停车场内）,True,15,0
福田景洲大厦充电站,114.04848100000001,22.552961,深圳市福田区景洲大厦室外停车场,True,6,0
莲花山公园东南门,114.058055555556,22.5519444444444,深圳市福田区红荔路与鹏程五路交叉口西北200米,True,14,0
比亚迪侨城北充电站（只对纯电动出租车开放）,113.992382,22.55772,广东省深圳市南山区侨城北充电站,True,40,0
福田莲花二村停车场充电站,114.069727,22.550245999999998,深圳市福田区红荔路5002号莲花二村停车场,False,0,29
回品酒店充电站,114.08195900000001,22.548502,深圳市福田区红荔路3015号,True,3,0
上步站,114.084088,22.547873000000003,深圳市福田区上步工业区303栋旁,True,7,0
科陆大厦充电站,113.94166299999999,22.561419,深圳市南山区宝深路与朗山三号路交叉口西南50米科陆大厦停车场内,True,25,0
科陆大厦充电站,113.94114099999999,22.561394,深圳市南山区宝深路与朗山三号路交叉口西南50米科陆大厦停车场内,True,5,0
科陆大厦调试充电站,113.94114099999999,22.561394,深圳市南山区宝深路与朗山三号路交叉口西南50米科陆大厦A座附近,True,10,0
科陆大厦充电站,113.94114099999999,22.561394,深圳市南山区宝深路与朗山三号路交叉口西南50米科陆大厦停车场内,True,20,0
现代演艺中心充电站,114.070799,22.548136,深圳市福田区华富街道红荔西路5003-1号现代苑(红荔路),True,8,0
莲花山公园西门,114.050360502614,22.549724909324397,深圳市福田区莲花山公园西门停车场,True,31,0
南山运发城巴充电站,113.96911899999999,22.557267,深圳市南山区沙河东路257号,True,2,0
福田供电局停车场充电站,114.084047,22.546035,深圳市福田区福田供电局内,True,10,0
比亚迪景田市场充电站,114.04620200000001,22.549437,深圳市福田区景田综合市场比亚迪电动汽车充电站,True,24,0
宝晖大厦充电站,113.89591499999999,22.563944,深圳市宝安区新安街道兴华路69号宝晖商务酒店,True,26,0
听泉居充电站,114.009901,22.552645000000002,深圳市福田区香蜜湖街道安托山六路听泉居旁边107公交总站,True,54,0
宝安供电局本部充电站,113.909398,22.562339,深圳市宝安供电局停车场,True,8,0
罗湖深圳供电局人民桥充电站,114.112889,22.542606,罗湖区深南东路4020号深圳供电局地面停车场,True,8,0
罗湖深房广场充电站,114.11788999999999,22.5415,深圳市罗湖区人民南路3005号深房广场,False,0,10
欧洲城迪卡侬停车场,113.965849,22.555834,深圳市南山区沙河东路255号迪卡侬停车场,True,24,0
欧洲城宜家停车场充电站,113.96634099999999,22.555609,深圳市南山区欧洲城宜家停车场,True,40,0
罗湖供电南苑充电站,114.112646,22.541217,深圳市罗湖区宝安南路1502,False,0,8
万马爱充F518创意园区站,113.86075,22.565491,深圳市宝安区宝源路F518时尚创意园内停车场,True,25,10
朗山酒店充电站,113.950921,22.556101,深圳市南山区科技园北区朗山路7号,True,17,0
海裕停车楼充电站,113.88353799999999,22.562672,深圳市宝安区罗田路明玉路交叉口海裕停车场,True,38,0
奥特讯电力大厦充电站,113.95188600000002,22.555035,深圳市南山区松坪山路5号奥特讯电力大厦负一楼,True,61,0
宝安马鞍山小区充电站,113.863192,22.56385,深圳市宝安西乡街道马鞍山小区,True,5,0
甲岸停车场充电站,113.90416840228201,22.5593844809141,深圳市宝安区海雅缤纷城公交站台旁,True,32,0
博达大厦充电站,113.988225,22.550979,深圳市南山区深云路6号博达大厦,True,2,0
奥特讯电力大厦后广场充电站,113.95121699999999,22.554598000000002,深圳市南山区松坪山路5号奥特讯电力大厦后广场,True,21,0
深圳南山南玻电子大厦,113.941911,22.5553,深圳市南山区西丽街道科技北三路1号南玻电子大厦1楼A2,True,20,0
滨江大厦充电站,114.10276599999999,22.537964000000002,深圳市福田区红岭南路30号滨江大厦地面停车场,True,1,0
西乡大铲湾充电站,113.85151100000002,22.560554999999997,深圳市宝安区西乡街道金湾大道1006号,True,54,0
特发信息港充电站,113.950153,22.550392000000002,深圳市南山区科技园特发信息科技大厦,True,32,0
大铲湾充电站-专用,113.850877,22.560088,深圳市宝安区西乡街道大铲湾公交总站,True,38,0
福田香蜜公园充电站,114.02561299999999,22.542248999999998,深圳市福田区农园路30号香蜜公园,True,10,0
马家龙艺园充电站,113.927697,22.551668,深圳市南山区艺园路163号附近,True,91,0
马家龙充电站,113.93064199999999,22.551228,深圳市南山区北环南海立交辅道,True,134,0
高新区生物孵化器充电站,113.940312,22.5499,深圳市南山区南新中一道10号,True,12,0
福田城建购物公园北园充电站,114.054313,22.536353,深圳市福田区城建购物公园北园地下停车场负一层,False,0,148
怡景中心充电站,114.05976000000001,22.535799,深圳市福田区福华一路3号中心城广场,True,2,0
投行大厦充电站,114.051892,22.536303,深圳市福田区福华一路投行大厦,True,2,0
华侨大厦充电站,114.116091,22.530171,深圳市罗湖区和平路1043号,True,3,0
嘉里建设广场充电站,114.05785900000001,22.535312,深圳市福田区福田中心区中心4路1号,True,22,0
天御香山1期充电站,114.019847,22.538776000000002,深圳市福田区红荔西路与农轩路交汇处地面停车场,True,8,0
华侨大厦,114.11642900000001,22.528608,深圳市罗湖区和平路1043号,True,3,0
软件园一期充电站,113.93956200000001,22.544518,深圳市南山区高新中三道2号软件园一期（1栋旁）,True,8,0
南山区创新大厦地下停车场,113.92347099999999,22.544225,深圳市南山区马家龙创新大厦,False,0,75
城中雅苑充电站,114.05255600000001,22.531425,深圳市福田区新洲路与福华三路交汇处城中雅苑小区地下停车场,True,2,0
联合广场充电站,114.069294,22.529837,深圳市福田区滨河大道5022号,True,1,0
南山中钢大厦充电站,113.940096,22.541613,深圳南山中钢大厦停车场,False,5,5
福田区竹子林紫竹三路路边桩充电站,114.006023,22.535082,广东省深圳市福田区竹子林紫竹三路,True,4,0
福田会展中心充电站,114.05778799999999,22.530022,深圳市福田区会展中心室外停车场西北角,True,11,0
比亚迪白石洲充电站,113.965057,22.538764999999998,广东省深圳市南山区沙河街道沙河东路(导航地点：比亚迪高压充电桩),True,60,0
比亚迪竹子林充电站,114.00747,22.53436,广东省深圳市福田区竹子林四路与紫竹六道交叉口西南100米（导航地点：竹子林的士码头）,True,40,0
中国经贸大厦充电站,114.00904799999999,22.534064,深圳市福田区紫竹七道18号中国经贸大厦地上停车场,True,1,0
比克大厦充电站,113.93293500000001,22.541320000000002,深圳市南山区比克科技大厦,True,12,0
宜停车充电站,114.004878,22.53417,深圳市福田区竹子林紫竹六道竹盛花园南门口,True,4,0
南山前海花卉公园停车场充电站,113.90353700000001,22.543889,深圳市南山区月亮湾大道前海公园,True,12,0
国皇大厦充电站,114.064375,22.528009,深圳市福田区金田路与滨河大道交汇处东南侧国皇大厦,True,2,0
联想大厦停车场充电站,113.947721,22.538813,深圳市南山区联想研发中心停车场科技南路与高新南一道交叉口西北侧,True,20,0
朗诗大厦充电站,113.95736000000001,22.53765,深圳市南山区科技南十二路12号朗诗大厦负一楼停车场,True,5,0
中国储能大厦充电站,113.94489399999999,22.538135999999998,深圳市南山区粤海街道中国储能大厦,True,10,0
中兴科技园B3楼充电站,113.948596,22.537266,深圳市南山区科技南六路与高新南三道交叉口东南50米,True,7,0
航盛大厦充电站,113.95368500000001,22.535736,深圳市南山区粤海街道航盛科技大厦负三楼停车场,True,3,0
深圳丽雅查尔顿酒店充电站,113.948922,22.535464,深圳市南山区高新科技园高新南四道13号（中兴通讯大厦南侧）,True,11,0
福田体育公园充电站,114.037493,22.526771,深圳市福田区滨河大道出口与滨河大道辅道交叉口南,True,30,0
深圳大学充电站,113.94953600000001,22.535,深圳市南山区粤海街道高新南六道6号,True,6,0
德维森大厦充电站,113.94646599999999,22.534202,深圳市南山区高新南七道16号,True,12,0
德维森大厦充电站,113.94646599999999,22.534202,深圳市南山区高新南七道16号,True,2,0
福田区委充电站,114.05572,22.522841,深圳市福田区福民路123号福田区委礼堂门口,True,5,0
皇岗口岸,114.07325274150499,22.5178502640477,福田区皇岗南路皇岗口岸深圳车港城7楼,True,40,0
欢乐海岸充电站,113.98931599999999,22.525539000000002,深圳市南山区滨海大道208号,True,3,0
中山大学充电站,113.94371100000001,22.526797,深圳市南山区粤海街道粤兴四道1号中山大学深圳产学研大楼,True,44,0
米尔科技充电站,113.938705,22.524820000000002,深圳市南山区软件产业基地4栋B座,True,3,0
聚电车间充电站,113.939815,22.52435,深圳市南山区软件产业基地1B栋,True,1,0
南山后海充电站,113.94422800000001,22.520569000000002,深圳市南山区滨海大道南侧，科苑大道西侧,True,12,0
深圳湾体育中心充电站,113.94717,22.51906,深圳市南山区深圳湾体育中心,True,12,0
深圳福田智立方创新园,114.05852,22.502411,深圳市福田区福保街道红棉道4号联星物流大厦,True,4,0
中建钢构充电站,113.940808,22.509009,深圳市南山区中心路与兰月四街交叉口西150米,True,6,0
中泰艺术名庭充电站,113.92018200000001,22.508569,深圳市南山区东滨路与向南路交汇沿东滨西行300米处中泰南山一品地面停车场,True,2,0
深圳南山区南海大道海晖大厦金山阁地下车库,113.9258,22.508007,深圳南山区南海大道海晖大厦金山阁地下车库,False,0,1
原南油酒店充电站,113.92706499999998,22.505035,深圳市南山区东滨路8号,True,16,0
高科充电站,113.898468,22.506324,深圳市南山区月亮湾大道2076号中国高科大厦D栋,True,18,0
四海公园充电站,113.92500600000001,22.496268,深圳市南山区招商街道公园路四海公园,True,10,0
安达运输充电站,113.91798,22.491215,深圳市南山区荔园路与工业五路交汇处北侧深圳市安达运输有限公司工业园内,True,10,0
望海路充电站,113.94453999999999,22.487428,深圳市南山区望海路北与中心路交汇处公益停车场,True,28,0
比亚迪望海路北充电站,113.944572,22.487375,深圳市深圳湾公园,True,40,0
荔山工业园充电站,113.893594,22.492463,深圳市南山区南山街道月亮湾沿山路荔山工业园附近,True,27,0
比亚迪海风运动公园充电站,113.94531599999999,22.486853,深圳市南山区望海路深圳湾海风运动公园,True,15,0
深圳南山蛇口海伴雅居,113.920257,22.486172,深圳市南山区蛇口海昌路109号,True,2,0
龙园充电站,114.268565,22.732737,深圳市龙岗区龙园路461号附近,True,25,0
伯尼大厦充电站,113.887207,22.768778,深圳市宝安区公明街道伯尼大厦,True,6,0
龙园公园充电站,114.26408400000001,22.732704000000002,深圳市龙岗区龙兴大道龙园公园西门,True,20,0
中心城东充电站,114.244051,22.7344,广东省深圳市龙岗区吉祥路597,False,0,17
光明下石家村停车场充电站,113.898049,22.767235,深圳市光明新区公明下石家公交总站,True,12,0
恒誉凤凰,113.9494,22.761267,广东省深圳市光明区光明街道碧园路63号,True,88,0
恒誉光侨路,113.9494,22.761267,广东省深圳市光明区光明街道碧园路63号,True,42,0
中信龙盛充电站,114.303405,22.727588,广东省深圳市龙岗区深汕路276号,False,0,36
志达工业园充电站,114.247831,22.731175,深圳市龙岗区龙平西路4号,True,23,0
沙浦二村充电站,113.82941299999999,22.771054,深圳市宝安区松兴路与沙江路交叉口东南150米,True,16,0
龙岗满京华充电站,114.27558300000001,22.728007,广东省深圳市龙岗区龙岗路13-6,False,0,45
喜悦里充电站,114.27553799999998,22.727933,广东省深圳市龙岗区龙岗路13-6,False,0,46
龙东充电站,114.294554,22.726246,广东省深圳市龙岗区金井路,False,0,40
光明将石大围停车场充电站,113.911001,22.761634,深圳市光明新区公明大围村内（大围幼儿园门口）,True,30,0
宝安松岗供电分局充电站,113.848518,22.767937,深圳市宝安区广深路松岗供电分局128号,True,8,0
坪山海关出口加工区办公大楼充电站,114.35471899999999,22.719806,深圳市山海关出口加工区办公大楼停车场,False,0,20
宝安居乐苑充电站,113.85233600000001,22.766726000000002,深圳市宝安区松岗街道居乐苑立业路33号,True,17,0
多彩科技园充电站,114.390483,22.716544,深圳市坪山区兰竹东路与聚龙山四号路交叉口北150米,True,10,0
万科里充电站,114.25818000000001,22.727536999999998,广东省深圳市龙岗区龙翔大道9002,False,0,23
坪山聚龙花园二期户外停车场充电站,114.37756499999999,22.717376,深圳市坪山区青松西路聚龙山花园二期户外停车场,True,27,0
双龙充电站,114.273168,22.726117000000002,深圳市龙岗区龙岗大道龙岗长途汽车站旁,True,7,0
松岗第三工业区充电站,113.808851,22.770794,深圳市宝安区松岗街道创业三路,True,1,0
龙岗中心城北充电站,114.23676100000002,22.728761,深圳市龙岗区龙平西路129号,True,20,0
中信龙盛充电站,114.296503,22.723084,深圳市龙岗区龙岗街道中信龙盛广场2栋01层52号公交首末站,True,34,0
龙岗中心城东充电站,114.23758600000001,22.727978,深圳市龙岗区吉祥路597号,True,17,0
康淮物流港充电站,114.04210900000001,22.745102,深圳市龙华区康淮电商中心B2层,True,25,0
龙华维也纳酒店充电站,114.03295700000001,22.745471,深圳市龙华区观澜街道办泗黎路513号,False,4,6
喜悦里充电站,114.268578,22.721846,深圳市龙岗区龙岗街道喜悦里华庭一期公交站01层20号,True,30,0
满京华充电站,114.268578,22.721846,深圳市龙岗区龙岗街道喜悦里华庭一期公交站01层20号,True,23,0
龙东充电站,114.28780400000001,22.720184,深圳市龙岗区龙岗街道金井路31号龙东公交首末站(龙东社区工作站旁),True,33,0
中科院大学深圳医院（委托运营）,113.9433807,22.751776800000002,光明新区华夏路39号中心医院内停车场 ,True,2,0
中科院大学深圳医院,113.9433807,22.751776800000002,深圳市光明新区光明街道华夏路39号,True,15,0
万马爱充松岗体育中心站,113.86508799999999,22.759745000000002,广东省深圳市宝安区东方大道松岗中学西侧,True,44,0
龙岗罗瑞合村充电站,114.257686,22.721068,深圳市龙岗街道南联罗瑞合村,True,6,0
坪山游泳馆充电站,114.351482,22.713028,深圳市坪山区深圳市大工业区体育中心,True,19,0
宝安红星国际新城充电站,113.83153899999999,22.761272,广东省深圳市宝安区沙井新区松岗红星国际新城东南(松安路北),True,40,0
万科里充电站,114.251699,22.720792000000003,深圳市龙岗区龙翔大道9002号,True,23,0
龙城和谐充电站,114.22682900000001,22.722410999999997,深圳市龙岗区横岗镇,True,22,0
坪山聚龙充电站,114.352469,22.711129,深圳市坪山区坪山区S356(深汕公路),True,23,0
坪山聚龙充电站,114.352497,22.711099,深圳市龙岗区深汕路坪山段337号,True,46,0
观澜同富裕工业区充电站,114.043098,22.737883,深圳市龙华区观澜库坑同富裕工业区162号,True,18,0
坪山中心公园充电站,114.34858999999999,22.710426000000002,深圳市坪山区坪山区丹梓西路深圳市坪山区中心公园,True,21,0
光明东坑社区东发路生态公园停车场充电站,113.91058500000001,22.750386,深圳市光明区东坑社区东发路30号,False,0,29
万马爱充鹏程花园站,113.809002,22.760641,广东省深圳市宝安区沙井街道新和大道112号鹏程花园停车场内,True,10,0
清林路龙城公园充电站,114.228366,22.718722,深圳市龙岗区清林路龙城公园北停车场,True,31,0
南联充电站,114.26891299999998,22.713675,广东省深圳市龙岗区爱南路229,False,0,39
坪山大工业区办公楼停车场充电站,114.34903700000001,22.706354,深圳市坪山区兰竹西路坪山大工业区办公楼停车场,False,0,40
坪山高铁站充电站,114.33060400000001,22.706899,深圳市坪山区坪兰路坪山火车站,True,21,0
观澜大富充电站,114.03079699999999,22.732614,深圳市龙华区樟顺路观澜大富工业区泽为工业园旁,True,122,0
燕子岭公园充电站,114.362362,22.702681,深圳市坪山区坪山区坪山大工业区燕子岭五路与金牛西路交叉口燕子岭公园,True,26,0
龙岗区宝昌利充电站,114.326545,22.705605,广东省深圳市龙岗区锦龙三路5号,False,0,27
宏域光明谷充电站,113.89456100000001,22.745859,广东省深圳市光明区马田街道石围社区油麻岗路宏域光明谷,True,70,0
银星工业园二期充电站,114.04730900000001,22.72963,深圳市龙华区观光路1301号银星高科技工业园,True,10,0
观澜湖高尔夫球会充电站-专用,114.069814,22.727328,深圳市龙华区观澜湖高尔夫球会运输部训练场内,True,16,0
深圳蓝--光明观光路充电驿站,113.95149099999999,22.737617,广东省深圳市光明区科林路,True,86,0
深圳蓝充电驿站--光明观光路站1,113.95149099999999,22.737617,广东省深圳市光明区科林路,False,0,0
南联充电站,114.26253799999999,22.707425,深圳市龙岗区爱南路227号,True,39,0
光明凤凰社区工作站停车场充电站,113.949789,22.736535999999997,深圳市光明新区凤凰社区工作站内,True,10,0
光明基地充电站,113.93913899999998,22.737111,深圳市光明新区汇业路与邦凯路交汇处奥特迅工业园内,True,24,0
怡翠路公园大地充电站,114.231571,22.707724,深圳市龙岗区怡翠路与龙翔大道交叉口西北100米,True,62,0
宝昌利充电站,114.31998700000001,22.699673999999998,深圳市龙岗区宝龙街道锦龙四路1号宝昌利工业园西南门,True,25,0
光明城高铁站充电站,113.95410600000001,22.73336,深圳市光明新区光明城高铁站,True,20,0
如意路三高充电站,114.222996,22.706908,深圳市龙岗区清林路龙城公园南停车场,True,3,0
光明万和科技大厦停车场充电站,113.93180100000001,22.734278,深圳市光明新区万和科技大厦停车场,True,4,0
如意路龙城公园充电站,114.223028,22.706541,深圳市龙岗区清林路龙城公园南停车场,True,32,0
中亚硅谷充电站,113.82141000000001,22.745354000000003,深圳市宝安区沙井街道壆岗路45号附近,True,14,0
万马爱充观澜山水田园站,114.10563,22.716822,深圳市龙华区环观路观澜山水田园停车场内,True,11,0
银星智界一期充电站,114.04607299999999,22.722394,深圳市龙华区新丹路1号银星智界地面停车场,True,6,0
腾鸿兴充电站,113.897127,22.735519,深圳市光明区玉明二路与田阔路交叉口东50米,True,2,0
龙岗圳埔岭南路充电站,114.238643,22.702132000000002,深圳市龙岗区龙岗街道圳埔岭南路,True,22,0
宝安沙井蚝四村充电站,113.80658799999999,22.74396,深圳市宝安区沙四南路蚝四村委,True,12,0
光明冠丰源物流园充电站-专用,113.94067,22.727856,深圳市光明新区田寮塘家大道6冠丰源物流园,True,0,0
平湖力昌充电站,114.13717,22.708865,广东省深圳市龙岗区华昌路10号,False,0,36
九洲工业园充电站,113.91769199999999,22.728286999999998,深圳市光明区十九号路10号,True,20,0
九洲工业园停车场充电站,113.91781100000001,22.728164000000003,深圳市光明新区公明街道同观路十九号路10号,True,20,0
宝安外经充电站,114.02786699999999,22.717093,深圳市龙华区狮径路13号（宝安外径工业园）,True,16,0
海科兴产业园一期充电站,114.325699,22.689934,深圳市坪山区宝山路16号海科兴产业园,True,8,0
龙城大运充电站,114.224101,22.698029000000002,广东省深圳市龙岗区龙飞大道,False,0,84
龙岗龙城外国语学校充电站,114.219352,22.698001,深圳市龙岗区新丰路106号（外国语学校停车场）,False,0,15
光明甲子塘充电站,113.913454,22.726875,深圳市宝安区光明高新区甲子塘片区综合服务中心停车场,True,15,0
观澜日山红充电站,114.10101499999999,22.707829,深圳市龙华区平大路与环观南路交叉口南200米,True,18,0
鹏森海纳一期充电站,113.925261,22.724660999999998,深圳市宝安区光明新区光桥路与东长路交汇处鹏森海纳中心,True,12,0
炜东城百货充电站,113.90571899999999,22.726231,深圳市宝安区光明新区田寮路3号,True,12,0
龙岗南约村委充电站,114.266599,22.691051,深圳市龙岗区宝龙街道南约村委,True,2,0
恩逸充电站,114.204093,22.696416,深圳市龙岗区大运公园青春路南50米,True,2,0
大运公园充电站,114.206277,22.696063,深圳市龙岗区大运公园青春路停车场,True,36,0
深圳宝安新沙荟名庭三期,113.81770900000001,22.73376,深圳市宝安区沙井街道新沙荟名庭三期1栋A座1楼,False,0,55
平湖力昌充电站,114.13088400000001,22.702729,深圳市龙岗区凤凰社区华昌路10号,True,36,0
中科检测站充电站,114.30087900000001,22.68713,深圳市龙岗区宝龙五路与宝龙大道交汇处西南侧,True,12,0
万马爱充芙蓉体育公园站,113.860069,22.728782,广东省深圳市宝安区新桥街道新玉路北侧芙蓉体育公园停车场内,True,10,0
万马爱充书香公园站,113.828011,22.732012,广东省深圳市宝安区沙井街道迎宾路南书香公园停车场内（鸿荣源禧园北侧）,True,18,0
沙井宝安书城充电站,113.82814499999999,22.730932,深圳市宝安区中心路宝安书城书城培训,True,18,0
龙岗南景新村充电站,114.271079,22.688275,深圳市龙岗区宝龙街道高科大道南景新村,False,0,22
龙岗龙城南景南约新村充电站,114.271079,22.688275,深圳市龙岗区宝龙街道高科大道南景新村,True,23,0
中华美食广场充电站,113.78870900000001,22.734753,深圳市宝安区民主大道中华美食广场,True,9,0
大运充电站,114.21801,22.692637,深圳市龙岗区龙翔大道与龙飞大道交界大运中心P1停车场,True,68,0
龙岗新南统建楼充电站,114.124399,22.70104,深圳市龙岗区平湖街道新夏大道98号新南统建楼,True,12,0
龙岗龙城台中工业区充电站,114.21158700000001,22.691382,深圳市龙城街道台中工业区,True,4,0
华润万家一期充电站,113.828364,22.728288,深圳市宝安区沙井镇新沙路与中心路交汇深明丰大厦,True,6,0
比亚迪六角大楼C区,114.36093799999999,22.678079,广东省深圳市坪山区比亚迪深圳研发中心(六角大楼)比亚迪汽车工业有限公司,False,0,1
万马爱充凤凰星苑酒店站,114.14188999999999,22.69677,广东省深圳市平湖街道凤凰大道146号,True,14,0
坪山停车塔交流充电站（只对已在BYD备案的纯电动车开放）,114.360037,22.677188,深圳比亚迪汽车工业有限公司,True,23,0
坪山石井田头社区充电站,114.34236899999999,22.678658,深圳市坪山区金田路田头社区,True,10,0
光明长圳新村委二号停车场充电站,113.91613899999999,22.717892000000003,深圳市光明区长圳新村委二号停车场,False,6,25
光明长圳新村委一号停车场充电站,113.91818500000001,22.717457,深圳市光明区长圳新村委一号停车场,False,0,40
沙井新桥文化艺术中心充电站,113.829752,22.726235,深圳市宝安区沙井街道聚景居沙井新桥市民广场,True,36,0
沙井京基百纳广场充电站,113.805254,22.728051,深圳市宝安区沙井街道创新路8号京基百纳广场停车场,True,18,0
龙华供电局本部电动汽车集中式充电站,114.03976999999999,22.704062,深圳市龙华区福城街道观澜大道人民路141号龙华供电局,True,27,0
坪山体育馆充电站,114.341776,22.675135,深圳市坪山区坪山区体育一路1号弘金地·费雷罗国际网球学院,True,82,0
龙岗平湖供电分局充电站,114.131273,22.693639,深圳市龙岗区平湖供电分局,True,4,0
京基御景印象充电站,114.33036200000001,22.675029000000002,深圳市坪山区同富路与锦龙大道交叉口东南200米,True,18,0
深圳市汇聚新桥107创智园充电站,113.842702,22.720571,深圳市宝安区沙井镇上寮工业路18号汇聚新桥107创智园地面停车场（停车场出入口处右边）,True,6,0
观澜文体中心充电站,114.04848,22.699108,深圳市龙华区沿河路22号观澜中心花园,True,45,0
深圳宝安创新花园充电站,113.83091100000001,22.720613,沙井创新花园物业,True,5,0
宝安沙井供电所象山中心站充电站,113.83471599999999,22.719179,深圳市宝安区沙井街道中国南方电网营业厅一楼,True,8,0
龙华白鸽湖公园充电站,114.090033,22.693502,广东省深圳市龙华区白鸽湖路131-2附近,False,2,10
龙岗赛格导航科技园充电站,114.27078,22.676902,深圳市龙岗区宝龙街道翠宝路赛格导航科技园,True,8,0
平湖充电站,114.13361100000002,22.688456,广东省深圳市龙岗区水门路,False,0,29
平湖荟港城充电站,114.14071200000001,22.686972,深圳市龙岗区平湖街道平湖大街330号荟港城,True,7,0
坪山汤坑充电站,114.313551,22.671344,深圳市坪山区同裕路2号,True,32,0
同富村工业园充电站,113.99846299999999,22.698445,深圳市龙华区大浪北路泰松工业园,True,6,0
深圳中天美景沙井店,113.826117,22.715730999999998,深圳宝安区沙井街道中心路7-1,True,5,0
万马爱充沙井靓车屋站,113.83462,22.714389,深圳市宝安区沙井街道上星南路9号附近,True,20,10
浩盛隆一期充电站,113.98325700000001,22.699099,深圳市龙华区大浪时尚创意园浪静路15号,True,6,0
深圳宝安沙井和维也纳酒店,113.779494,22.718882999999998,深圳市宝安区沙井街道南环路549号维也纳酒店,True,2,0
坪山汤坑充电站,114.309207,22.668020000000002,深圳市坪山区汤坑二路16号,True,24,0
南国俪人充电站,113.98686599999999,22.697341,深圳市龙华区浪静路11号负一层,True,5,0
厚裕产业园充电站,113.98385,22.697511,深圳市龙华区一号路歌力思厚裕时尚产业园停车场,True,6,0
梵思诺充电站,113.991147,22.695706,深圳市龙华区浪静路梵思诺地上停车场,True,6,0
平湖充电站,114.126896,22.682164999999998,深圳市平湖街道富安路与水门路交叉口,True,29,0
广弘中心一期充电站,114.119023,22.681851,深圳市龙岗区富安大道与平吉大道交叉口西50米,True,11,0
宝安和一新村充电站,113.78508300000001,22.714128,深圳市宝安区沙井街道锦程路1024号,True,6,0
横岗时尚e城充电站,114.211325,22.666264,深圳市龙岗区红棉四路23号时尚e城,True,9,0
鹏腾达工业园充电站,113.995818,22.68621,深圳市龙华区华霆路131号鹏腾达工业园,True,8,0
龙岗园山街道荟萃酒店充电站,114.219278,22.66285,广东省深圳市龙岗区龙岗大道6259号（荟萃酒店停车场）,False,0,34
龙岗平湖宝能智创谷充电站,114.13096499999999,22.670761,深圳市龙岗区平湖街道宝能智创谷地下停车场-2层,False,0,30
龙岗平湖智创谷充电站,114.13096499999999,22.670761,深圳市龙岗区平湖智创谷负2、负3层地下停车场,False,0,40
石岩丽枫充电站,113.93543500000001,22.688945,广东省深圳市宝安区宝石西路126-1,False,0,16
宝能智创谷充电站,114.13073200000001,22.669176999999998,深圳市龙岗区平湖宝能智创谷南区地上停车场,True,30,0
清丽路充电站,114.060905,22.675182,深圳市龙华区清丽路公交总站,True,35,0